station,valid,tmpf,dwpf,relh,drct,sknt,p01i,alti,mslp,vsby,gust,skyc1,skyc2,skyc3,skyc4,skyl1,skyl2,skyl3,skyl4,wxcodes,ice_accretion_1hr,ice_accretion_3hr,ice_accretion_6hr,peak_wind_gust,peak_wind_drct,peak_wind_time,feel,metar
IPT,1996-01-13 00:00,23.00,21.02,91.98,280.00,10.00,M,29.66,1005.00,1.25,M,BKN,BKN,OVC,   ,500.00,900.00,1500.00,M,-SN FG,M,M,M,M,M,M,11.68,KIPT 130000Z 28010KT 11/4SM -SN FG BKN005 BKN009 OVC015 M05/M06 A2966 RMK SNOINCR 58007 6037/ 10023 20017 PCPN 0003; SLP050 60026 8//26 T10501061 411781589 540/0
IPT,1996-01-13 00:06,M,M,M,280.00,10.00,M,29.66,1004.90,1.50,M,BKN,OVC,   ,   ,700.00,1300.00,M,M,-SN FG,M,M,M,M,M,M,M,KIPT 130006Z 28010KT 11/2SM -SN FG BKN007 OVC013 A2966 RMK PCPN 0000; SLP049
IPT,1996-01-13 00:18,M,M,M,270.00,12.00,M,29.65,1004.80,2.00,M,BKN,OVC,   ,   ,1200.00,1700.00,M,M,-SN FG,M,M,M,M,M,M,M,KIPT 130018Z 27012KT 2SM -SN FG BKN012 OVC017 A2965 RMK PCPN 0000; SLP048
IPT,1996-01-13 00:35,M,M,M,270.00,8.00,M,29.65,1004.80,3.00,M,SCT,BKN,OVC,   ,1400.00,4800.00,6000.00,M,-SN FG,M,M,M,M,M,M,M,KIPT 130035Z 27008KT 3SM -SN FG SCT014 BKN048 OVC060 A2965 RMK PCPN 0000; SLP048
IPT,1996-01-13 01:00,24.08,21.92,91.32,270.00,12.00,M,29.65,1004.80,4.00,M,SCT,BKN,OVC,   ,4800.00,6000.00,9000.00,M,-SN FG,M,M,M,M,M,M,11.92,KIPT 130100Z 27012KT 4SM -SN FG SCT048 BKN060 OVC090 M04/M06 A2965 RMK PCPN 0000; SLP048 T10441056
IPT,1996-01-13 01:18,M,M,M,270.00,10.00,M,29.65,1004.90,4.00,M,BKN,BKN,OVC,   ,2800.00,5000.00,9000.00,M,-SN FG,M,M,M,M,M,M,M,KIPT 130118Z 27010KT 4SM -SN FG BKN028 BKN050 OVC090 A2965 RMK PCPN 0000; SLP049
IPT,1996-01-13 01:30,24.98,21.92,87.96,270.00,11.00,M,29.66,1005.00,7.00,M,SCT,SCT,OVC,   ,1900.00,3100.00,7000.00,M,-SN,M,M,M,M,M,M,13.60,KIPT 130130Z 27011KT 7SM -SN SCT019 SCT031 OVC070 M04/M06 A2966 RMK PCPN 0000; SLP050 T10391056
IPT,1996-01-13 02:00,24.98,21.02,84.67,270.00,13.00,M,29.68,1005.10,10.00,M,OVC,   ,   ,   ,6500.00,M,M,M,M,M,M,M,M,M,M,12.57,KIPT 130200Z 27013KT 10SM OVC065 M04/M06 A//// RMK SLP051 T10391061
IPT,1996-01-13 03:00,26.96,21.02,78.00,270.00,13.00,M,29.67,1005.50,10.00,M,OVC,   ,   ,   ,2700.00,M,M,M,M,M,M,M,M,M,M,15.11,KIPT 130300Z 27013KT 10SM OVC027 M03/M06 A2967 RMK 6000/ OVC V BKN; SLP055 T10281061 55030
IPT,1996-01-13 04:00,26.96,21.02,78.00,270.00,10.00,M,29.66,1005.00,5.00,M,OVC,   ,   ,   ,2500.00,M,M,M,-SN,M,M,M,M,M,M,16.65,KIPT 130400Z 27010KT 5SM -SN OVC025 M03/M06 A2966 RMK SB26 PCPN 0000; SLP050 T10281061
IPT,1996-01-13 05:00,26.06,19.94,77.32,270.00,13.00,M,29.66,1005.00,10.00,M,OVC,   ,   ,   ,2300.00,M,M,M,-SN,M,M,M,M,M,M,13.96,KIPT 130500Z 27013KT 10SM -SN OVC023 M03/M07 A2966 RMK 400270017 SE11B50 PCPN 0000; SLP050 T10331067
IPT,1996-01-13 06:00,26.06,19.94,77.32,270.00,10.00,M,29.67,1005.30,10.00,M,OVC,   ,   ,   ,2100.00,M,M,M,M,M,M,M,M,M,M,15.52,KIPT 130600Z 27010KT 10SM OVC021 M03/M07 A2967 RMK 55002 6000/ 10027 20017 SE44 PCPN 0000; SLP053 60026 T10331067 411781589 540/0
IPT,1996-01-13 07:00,26.06,19.94,77.32,300.00,8.00,M,29.68,1005.70,10.00,M,OVC,   ,   ,   ,2100.00,M,M,M,M,M,M,M,M,M,M,16.80,KIPT 130700Z 30008KT 10SM OVC021 M03/M07 A2968 RMK SLP057 T10331067
IPT,1996-01-13 08:00,24.08,17.96,77.14,290.00,9.00,M,29.71,1006.60,10.00,M,SCT,   ,   ,   ,2500.00,M,M,M,M,M,M,M,M,M,M,13.67,KIPT 130800Z 29009KT 10SM SCT025 M04/M08 A2971 RMK SLP066 T10441078
IPT,1996-01-13 09:00,23.00,15.98,74.09,290.00,9.00,M,29.71,1006.70,10.00,M,SCT,   ,   ,   ,2500.00,M,M,M,M,M,M,M,M,M,M,12.32,KIPT 130900Z 29009KT 10SM SCT025 M05/M09 A2971 RMK 51015; SLP067 T10501089
IPT,1996-01-13 10:00,19.04,15.08,84.27,290.00,4.00,M,29.71,1007.00,10.00,M,SCT,   ,   ,   ,2600.00,M,M,M,M,M,M,M,M,M,M,12.29,KIPT 131000Z 29004KT 10SM SCT026 M07/M09 A2971 RMK SLP070 T10721094
IPT,1996-01-13 11:00,17.96,14.00,84.20,290.00,7.00,M,29.74,1007.90,10.00,M,CLR,   ,   ,   ,M,M,M,M,M,M,M,M,M,M,M,7.67,KIPT 131100Z 29007KT 10SM CLR/// M08/M10 A2974 RMK CLR BLO SLP079 T10781100 51020
IPT,1996-01-13 12:00,19.04,15.08,84.27,290.00,9.00,M,29.79,1008.70,10.00,M,CLR,   ,   ,   ,M,M,M,M,M,M,M,M,M,M,M,7.40,KIPT 131200Z 29009KT 10SM CLR/// M07/M09 A//// RMK SLP087 T10721094
IPT,1996-01-13 12:33,M,M,M,280.00,8.00,M,29.77,1008.90,10.00,M,BKN,   ,   ,   ,2500.00,M,M,M,M,M,M,M,M,M,M,M,KIPT 131233Z 28008KT 10SM BKN025 A2977 RMK SLP089
IPT,1996-01-13 13:00,19.04,15.08,84.27,300.00,5.00,M,29.77,1008.80,10.00,M,OVC,   ,   ,   ,2300.00,M,M,M,M,M,M,M,M,M,M,11.00,KIPT 131300Z 30005KT 10SM OVC023 M07/M09 A2977 RMK SLP088 T10721094
IPT,1996-01-13 14:00,21.92,15.98,77.54,280.00,9.00,M,29.80,1009.00,10.00,M,OVC,   ,   ,   ,2100.00,M,M,M,M,M,M,M,M,M,M,10.98,KIPT 131400Z 28009KT 10SM OVC021 M06/M09 A//// RMK SLP090 T10561089
IPT,1996-01-13 15:00,23.00,17.06,77.64,270.00,10.00,M,29.79,1009.40,10.00,M,OVC,   ,   ,   ,2500.00,M,M,M,M,M,M,M,M,M,M,11.68,KIPT 131500Z 27010KT 10SM OVC025 M05/M08 A2979 RMK 51009; SLP094 T10501083
IPT,1996-01-13 16:00,24.08,17.96,77.14,260.00,8.00,M,29.81,1009.50,10.00,M,OVC,   ,   ,   ,2500.00,M,M,M,M,M,M,M,M,M,M,14.36,KIPT 131600Z 26008KT 10SM OVC025 M04/M08 A//// RMK SLP095 T10441078
IPT,1996-01-13 17:00,24.98,17.96,74.29,260.00,10.00,M,29.76,1008.40,10.00,M,OVC,   ,   ,   ,2700.00,M,M,M,M,M,M,M,M,M,M,14.16,KIPT 131700Z 26010KT 10SM OVC027 M04/M08 A2976 RMK PRESFR ; SLP084 T10391078
IPT,1996-01-13 18:00,26.96,19.04,71.69,260.00,10.00,M,29.74,1007.70,10.00,M,SCT,SCT,   ,   ,2700.00,7500.00,M,M,M,M,M,M,M,M,M,16.65,KIPT 131800Z 26010KT 10SM SCT027 SCT075 M03/M07 A2974 RMK 933035 10027 20016; SLP077 60014 T10281072 55080
IPT,1996-01-13 19:00,28.94,19.94,68.68,260.00,9.00,M,29.73,1007.30,10.00,M,BKN,BKN,   ,   ,3000.00,7000.00,M,M,M,M,M,M,M,M,M,19.71,KIPT 131900Z 26009KT 10SM BKN030 BKN070 M02/M07 A2973 RMK SLP073 T10171067
IPT,1996-01-13 20:00,30.92,21.92,68.92,260.00,9.00,M,29.73,1007.30,10.00,M,OVC,   ,   ,   ,7000.00,M,M,M,M,M,M,M,M,M,M,22.17,KIPT 132000Z 26009KT 10SM OVC070 M01/M06 A2973 RMK SLP073 T10061056
IPT,1996-01-13 21:00,30.92,21.92,68.92,260.00,9.00,M,29.74,1007.60,10.00,M,OVC,   ,   ,   ,7500.00,M,M,M,M,M,M,M,M,M,M,22.17,KIPT 132100Z 26009KT 10SM OVC075 M01/M06 A2974 RMK 55000; SLP076 T10061056
IPT,1996-01-13 22:00,30.92,23.00,72.12,260.00,10.00,M,29.76,1008.60,10.00,M,OVC,   ,   ,   ,3000.00,M,M,M,M,M,M,M,M,M,M,21.61,KIPT 132200Z 26010KT 10SM OVC030 M01/M05 A2976 RMK SLP086 T10061050
IPT,1996-01-13 23:00,30.92,21.92,68.92,270.00,9.00,M,29.78,1009.30,10.00,M,OVC,   ,   ,   ,3000.00,M,M,M,M,M,M,M,M,M,M,22.17,KIPT 132300Z 27009KT 10SM OVC030 M01/M06 A2978 RMK SLP093 T10061056
IPT,1996-01-14 00:00,30.92,23.00,72.12,270.00,6.00,M,29.79,1009.70,10.00,M,OVC,   ,   ,   ,2900.00,M,M,M,M,M,M,M,M,M,M,24.23,KIPT 140000Z 27006KT 10SM OVC029 M01/M05 A2979 RMK 51017 10031 20016; SLP097 60022 T10061050 411781611 540/0
IPT,1996-01-14 01:00,30.02,24.08,78.27,260.00,10.00,M,29.83,1010.80,10.00,M,OVC,   ,   ,   ,2300.00,M,M,M,M,M,M,M,M,M,M,20.49,KIPT 140100Z 26010KT 10SM OVC023 M01/M04 A2983 RMK SLP108 T10111044
IPT,1996-01-14 02:00,30.92,24.08,75.46,270.00,9.00,M,29.85,1011.60,10.00,M,OVC,   ,   ,   ,2300.00,M,M,M,M,M,M,M,M,M,M,22.17,KIPT 140200Z 27009KT 10SM OVC023 M01/M04 A2985 RMK SLP116 T10061044
IPT,1996-01-14 03:00,30.02,24.08,78.27,260.00,8.00,M,29.87,1012.00,10.00,M,OVC,   ,   ,   ,2300.00,M,M,M,M,M,M,M,M,M,M,21.67,KIPT 140300Z 26008KT 10SM OVC023 M01/M04 A2987 RMK 51025; SLP120 T10111044
IPT,1996-01-14 04:00,30.02,24.08,78.27,270.00,6.00,M,29.89,1012.70,10.00,M,SCT,OVC,   ,   ,2900.00,3500.00,M,M,M,M,M,M,M,M,M,23.15,KIPT 140400Z 27006KT 10SM SCT029 OVC035 M01/M04 A2989 RMK SLP127 T10111044
IPT,1996-01-14 04:09,M,M,M,260.00,6.00,M,29.88,1012.60,10.00,M,BKN,OVC,   ,   ,2900.00,3500.00,M,M,M,M,M,M,M,M,M,M,KIPT 140409Z 26006KT 10SM BKN029 OVC035 A2988 RMK SLP126
IPT,1996-01-14 05:00,30.02,23.00,74.81,270.00,7.00,M,29.88,1012.60,10.00,M,OVC,   ,   ,   ,2700.00,M,M,M,M,M,M,M,M,M,M,22.37,KIPT 140500Z 27007KT 10SM OVC027 M01/M05 A2988 RMK 400310016; SLP126 T10111050
IPT,1996-01-14 06:00,30.02,24.08,78.27,290.00,5.00,M,29.89,1012.90,10.00,M,OVC,   ,   ,   ,2500.00,M,M,M,M,M,M,M,M,M,M,24.04,KIPT 140600Z 29005KT 10SM OVC025 M01/M04 A2989 RMK 51008 10031 20016; SLP129 60022 T10111044 411781611 540/0
IPT,1996-01-14 07:00,30.92,24.08,75.46,270.00,5.00,M,29.91,1013.30,10.00,M,OVC,   ,   ,   ,2300.00,M,M,M,M,M,M,M,M,M,M,25.11,KIPT 140700Z 27005KT 10SM OVC023 M01/M04 A2991 RMK SLP133 T10061044
IPT,1996-01-14 08:00,30.92,24.98,78.35,290.00,4.00,M,29.91,1013.40,10.00,M,OVC,   ,   ,   ,2300.00,M,M,M,M,M,M,M,M,M,M,26.16,KIPT 140800Z 29004KT 10SM OVC023 M01/M04 A2991 RMK SLP134 T10061039
IPT,1996-01-14 08:24,M,M,M,270.00,9.00,M,29.91,1013.50,10.00,M,SCT,OVC,   ,   ,2300.00,3900.00,M,M,M,M,M,M,M,M,M,M,KIPT 140824Z 27009KT 10SM SCT023 OVC039 A2991 RMK SLP135
IPT,1996-01-14 09:00,30.92,24.98,78.35,260.00,7.00,M,29.91,1013.30,10.00,M,OVC,   ,   ,   ,3700.00,M,M,M,M,M,M,M,M,M,M,23.46,KIPT 140900Z 26007KT 10SM OVC037 M01/M04 A2991 RMK 50006; SLP133 T10061039
IPT,1996-01-14 10:00,28.94,24.98,84.93,300.00,6.00,M,29.92,1013.30,10.00,M,BKN,   ,   ,   ,2900.00,M,M,M,M,M,M,M,M,M,M,21.84,KIPT 141000Z 30006KT 10SM BKN029 M02/M04 A//// RMK SLP133 T10171039
IPT,1996-01-14 11:00,26.06,24.08,92.09,80.00,4.00,M,29.92,1013.90,10.00,M,OVC,   ,   ,   ,1900.00,M,M,M,M,M,M,M,M,M,M,20.48,KIPT 141100Z 08004KT 10SM OVC019 M03/M04 A2992 RMK SLP139 T10331044
IPT,1996-01-14 12:00,26.06,24.08,92.09,100.00,5.00,M,29.93,1014.10,7.00,M,OVC,   ,   ,   ,1900.00,M,M,M,M,M,M,M,M,M,M,19.34,KIPT 141200Z 10005KT 7SM OVC019 M03/M04 A2993 RMK 53006 10031 20026; SLP141 60022 T10331044 411781611 540/0
IPT,1996-01-14 13:00,26.06,24.08,92.09,90.00,3.00,M,29.93,1014.00,5.00,M,OVC,   ,   ,   ,1700.00,M,M,M,FG,M,M,M,M,M,M,21.90,KIPT 141300Z 09003KT 5SM FG OVC017 M03/M04 A2993 RMK SLP140 T10331044
IPT,1996-01-14 14:00,26.06,24.08,92.09,110.00,5.00,M,29.92,1013.80,7.00,M,OVC,   ,   ,   ,1700.00,M,M,M,M,M,M,M,M,M,M,19.34,KIPT 141400Z 11005KT 7SM OVC017 M03/M04 A2992 RMK SLP138 T10331044
IPT,1996-01-14 15:00,28.04,24.08,84.87,50.00,4.00,M,29.90,1013.10,7.00,M,SCT,   ,   ,   ,1700.00,M,M,M,M,M,M,M,M,M,M,22.80,KIPT 141500Z 05004KT 7SM SCT017 M02/M04 A2990 RMK 58010; SLP131 T10221044
IPT,1996-01-14 16:00,30.02,26.06,85.00,80.00,7.00,M,29.88,1012.50,7.00,M,CLR,   ,   ,   ,M,M,M,M,M,M,M,M,M,M,M,22.37,KIPT 141600Z 08007KT 7SM CLR/// M01/M03 A2988 RMK CLR BLO SLP125 T10111033 51020
IPT,1996-01-14 17:00,33.98,26.96,75.20,70.00,4.00,M,29.85,1011.40,10.00,M,CLR,   ,   ,   ,M,M,M,M,M,M,M,M,M,M,M,29.73,KIPT 141700Z 07004KT 10SM CLR/// 01/M03 A2985 RMK CLR BLO SLP114 T00111028 51020
IPT,1996-01-14 18:00,35.06,26.96,72.03,100.00,4.00,M,29.81,1010.00,10.00,M,CLR,   ,   ,   ,M,M,M,M,M,M,M,M,M,M,M,30.99,KIPT 141800Z 10004KT 10SM CLR/// 02/M03 A2981 RMK CLR BLO 933034 58030 10035 20025; SLP100 T00171028 51020
IPT,1996-01-14 19:00,35.96,28.04,72.66,100.00,7.00,M,29.77,1008.70,10.00,M,CLR,   ,   ,   ,M,M,M,M,M,M,M,M,M,M,M,29.61,KIPT 141900Z 10007KT 10SM CLR/// 02/M02 A2977 RMK CLR BLO SLP087 T00221022 51020
IPT,1996-01-14 20:00,37.94,28.04,67.21,80.00,7.00,M,29.76,1008.20,10.00,M,CLR,   ,   ,   ,M,M,M,M,M,M,M,M,M,M,M,32.02,KIPT 142000Z 08007KT 10SM CLR/// 03/M02 A2976 RMK CLR BLO SLP082 T00331022 51020
IPT,1996-01-14 21:00,37.94,28.04,67.21,110.00,6.00,M,29.77,1008.50,10.00,M,CLR,   ,   ,   ,M,M,M,M,M,M,M,M,M,M,M,32.68,KIPT 142100Z 11006KT 10SM CLR/// 03/M02 A2977 RMK CLR BLO 55013; SLP085 T00331022 51020
IPT,1996-01-14 22:00,37.94,26.96,64.29,100.00,4.00,M,29.77,1008.40,10.00,M,CLR,   ,   ,   ,M,M,M,M,M,M,M,M,M,M,M,34.36,KIPT 142200Z 10004KT 10SM CLR/// 03/M03 A2977 RMK CLR BLO SLP084 T00331028 51020
IPT,1996-01-14 23:00,33.08,26.96,77.96,340.00,3.00,M,29.79,1009.30,7.00,M,CLR,   ,   ,   ,M,M,M,M,M,M,M,M,M,M,M,29.92,KIPT 142300Z 34003KT 7SM CLR/// 01/M03 A2979 RMK CLR BLO SLP093 T00061028 51020
IPT,1996-01-15 00:00,28.04,26.06,92.16,0.00,0.00,M,29.81,1010.00,5.00,M,CLR,   ,   ,   ,M,M,M,M,FG,M,M,M,M,M,M,28.04,KIPT 150000Z 00000KT 5SM FG CLR/// M02/M03 A2981 RMK CLR BLO 53012 10039 20025; SLP100 T10221033 411781622 51020
IPT,1996-01-15 01:00,24.98,24.98,100.00,0.00,0.00,M,29.83,1010.80,4.00,M,CLR,   ,   ,   ,M,M,M,M,FG,M,M,M,M,M,M,24.98,KIPT 150100Z 00000KT 4SM FG CLR/// M04/M04 A2983 RMK CLR BLO SLP108 T10391039 51020
IPT,1996-01-15 02:00,24.08,24.08,100.00,300.00,3.00,M,29.86,1011.70,3.00,M,CLR,   ,   ,   ,M,M,M,M,FG,M,M,M,M,M,M,19.63,KIPT 150200Z 30003KT 3SM FG CLR/// M04/M04 A2986 RMK CLR BLO SLP117 T10441044 51020
IPT,1996-01-15 02:18,M,M,M,270.00,3.00,M,29.86,1012.00,3.00,M,SCT,   ,   ,   ,100.00,M,M,M,FG,M,M,M,M,M,M,M,KIPT 150218Z 27003KT 3SM FG SCT001 A2986 RMK SLP120
IPT,1996-01-15 03:00,23.00,21.92,95.55,310.00,3.00,M,29.87,1012.20,3.00,M,SCT,   ,   ,   ,100.00,M,M,M,FG,M,M,M,M,M,M,18.40,KIPT 150300Z 31003KT 3SM FG SCT001 M05/M06 A2987 RMK 51022; SLP122 T10501056
IPT,1996-01-15 04:00,21.02,21.02,100.00,0.00,0.00,M,29.89,1012.80,0.50,M,BKN,   ,   ,   ,100.00,M,M,M,FG,M,M,M,M,M,M,21.02,KIPT 150400Z 00000KT 1/2SM FG BKN001 M06/M06 A2989 RMK SLP128 T10611061
IPT,1996-01-15 04:07,M,M,M,310.00,3.00,M,29.90,1013.00,2.50,M,OVC,   ,   ,   ,100.00,M,M,M,FG,M,M,M,M,M,M,M,KIPT 150407Z 31003KT 21/2SM FG OVC001 A2990 RMK SLP130
IPT,1996-01-15 05:00,19.94,17.96,91.87,210.00,3.00,M,29.91,1013.60,0.50,M,SCT,   ,   ,   ,3800.00,M,M,M,FG,M,M,M,M,M,M,14.90,KIPT 150500Z 21003KT 1/2SM FG SCT038 M07/M08 A2991 RMK SLP136 T10671078
IPT,1996-01-15 05:09,M,M,M,0.00,0.00,M,29.91,1013.50,1.50,M,BKN,   ,   ,   ,3800.00,M,M,M,FG,M,M,M,M,M,M,M,KIPT 150509Z 00000KT 11/2SM FG BKN038 A2991 RMK SLP135
IPT,1996-01-15 05:17,M,M,M,0.00,0.00,M,29.91,1013.60,3.00,M,BKN,   ,   ,   ,3800.00,M,M,M,FG,M,M,M,M,M,M,M,KIPT 150517Z 00000KT 3SM FG BKN038 A2991 RMK SLP136
IPT,1996-01-15 05:26,M,M,M,0.00,0.00,M,29.92,1013.70,2.00,M,BKN,   ,   ,   ,3800.00,M,M,M,FG,M,M,M,M,M,M,M,KIPT 150526Z 00000KT 2SM FG BKN038 A2992 RMK SLP137
IPT,1996-01-15 05:34,M,M,M,0.00,0.00,M,29.92,1013.70,1.75,M,BKN,   ,   ,   ,3800.00,M,M,M,FG,M,M,M,M,M,M,M,KIPT 150534Z 00000KT 13/4SM FG BKN038 A2992 RMK SLP137
IPT,1996-01-15 06:00,21.92,21.02,96.26,220.00,5.00,M,29.93,1013.70,2.50,M,BKN,   ,   ,   ,3800.00,M,M,M,FG,M,M,M,M,M,M,14.42,KIPT 150600Z 22005KT 21/2SM FG BKN038 M06/M06 A//// RMK SLP137 T10561061
IPT,1996-01-15 06:27,M,M,M,230.00,4.00,M,29.93,1014.20,3.00,M,BKN,   ,   ,   ,3800.00,M,M,M,FG,M,M,M,M,M,M,M,KIPT 150627Z 23004KT 3SM FG BKN038 A2993 RMK SLP142
IPT,1996-01-15 06:35,M,M,M,250.00,4.00,M,29.93,1014.20,2.50,M,SCT,   ,   ,   ,3800.00,M,M,M,FG,M,M,M,M,M,M,M,KIPT 150635Z 25004KT 21/2SM FG SCT038 A2993 RMK SLP142
IPT,1996-01-15 07:00,23.00,21.92,95.55,250.00,5.00,M,29.94,1014.40,2.50,M,BKN,   ,   ,   ,3800.00,M,M,M,FG,M,M,M,M,M,M,15.71,KIPT 150700Z 25005KT 21/2SM FG BKN038 M05/M06 A2994 RMK SLP144 T10501056
IPT,1996-01-15 07:23,M,M,M,0.00,0.00,M,29.96,1015.00,3.00,M,OVC,   ,   ,   ,3800.00,M,M,M,FG,M,M,M,M,M,M,M,KIPT 150723Z 00000KT 3SM FG OVC038 A2996 RMK SLP150
IPT,1996-01-15 08:00,23.00,23.00,100.00,160.00,4.00,M,29.98,1015.60,3.00,M,OVC,   ,   ,   ,3600.00,M,M,M,FG,M,M,M,M,M,M,16.91,KIPT 150800Z 16004KT 3SM FG OVC036 M05/M05 A2998 RMK SLP156 T10501050
IPT,1996-01-15 09:00,24.98,24.98,100.00,170.00,3.00,M,29.99,1016.30,4.00,M,OVC,   ,   ,   ,3200.00,M,M,M,FG,M,M,M,M,M,M,20.66,KIPT 150900Z 17003KT 4SM FG OVC032 M04/M04 A2999 RMK 51025; SLP163 T10391039
IPT,1996-01-15 10:00,26.06,26.06,100.00,0.00,0.00,M,30.01,1016.80,4.00,M,OVC,   ,   ,   ,2800.00,M,M,M,FG,M,M,M,M,M,M,26.06,KIPT 151000Z 00000KT 4SM FG OVC028 M03/M03 A3001 RMK SLP168 T10331033
IPT,1996-01-15 10:34,M,M,M,0.00,0.00,M,30.04,1017.70,4.00,M,OVC,   ,   ,   ,3000.00,M,M,M,FG,M,M,M,M,M,M,M,KIPT 151034Z 00000KT 4SM FG OVC030 A3004 RMK SLP177
IPT,1996-01-15 11:00,26.96,26.96,100.00,0.00,0.00,M,30.05,1018.10,4.00,M,OVC,   ,   ,   ,3400.00,M,M,M,FG,M,M,M,M,M,M,26.96,KIPT 151100Z 00000KT 4SM FG OVC034 M03/M03 A3005 RMK SLP181 T10281028
IPT,1996-01-15 12:00,30.92,28.04,88.92,330.00,4.00,M,30.09,1019.60,7.00,M,BKN,OVC,   ,   ,2200.00,3300.00,M,M,M,M,M,M,M,M,M,26.16,KIPT 151200Z 33004KT 7SM BKN022 OVC033 M01/M02 A3009 RMK 53032 10039 20018; SLP196 60019 T10061022 411781628 540/0
IPT,1996-01-15 12:42,M,M,M,350.00,9.00,M,30.14,1021.20,10.00,M,SCT,OVC,   ,   ,2200.00,3700.00,M,M,M,M,M,M,M,M,M,M,KIPT 151242Z 35009KT 10SM SCT022 OVC037 A3014 RMK SLP212
IPT,1996-01-15 13:00,32.00,26.06,78.45,350.00,8.00,M,30.15,1021.60,10.00,16.00,OVC,   ,   ,   ,3700.00,M,M,M,M,M,M,M,M,M,M,24.11,KIPT 151300Z 35008G16KT 10SM OVC037 00/M03 A3015 RMK SLP216 T00001033
IPT,1996-01-15 13:17,M,M,M,350.00,10.00,M,30.17,1022.30,10.00,15.00,BKN,OVC,   ,   ,2100.00,3900.00,M,M,M,M,M,M,M,M,M,M,KIPT 151317Z 35010G15KT 10SM BKN021 OVC039 A3017 RMK SLP223
IPT,1996-01-15 14:00,30.92,23.00,72.12,340.00,7.00,M,30.20,1023.40,10.00,M,OVC,   ,   ,   ,2100.00,M,M,M,M,M,M,M,M,M,M,23.46,KIPT 151400Z 34007KT 10SM OVC021 M01/M05 A3020 RMK SLP234 T10061050
IPT,1996-01-15 15:00,30.02,19.94,65.72,10.00,6.00,M,30.26,1025.20,10.00,M,BKN,OVC,   ,   ,2700.00,3200.00,M,M,M,M,M,M,M,M,M,23.15,KIPT 151500Z 01006KT 10SM BKN027 OVC032 M01/M07 A3026 RMK 51054; SLP252 T10111067
IPT,1996-01-15 15:14,M,M,M,350.00,6.00,M,30.28,1026.00,10.00,M,SCT,OVC,   ,   ,2700.00,3200.00,M,M,M,M,M,M,M,M,M,M,KIPT 151514Z 35006KT 10SM SCT027 OVC032 A3028 RMK SLP260
IPT,1996-01-15 16:00,28.94,17.06,60.69,350.00,6.00,M,30.32,1026.60,10.00,M,BKN,   ,   ,   ,3600.00,M,M,M,M,M,M,M,M,M,M,21.84,KIPT 151600Z 35006KT 10SM BKN036 M02/M08 A//// RMK SLP266 T10171083
IPT,1996-01-15 17:00,28.04,15.08,57.79,10.00,14.00,M,30.32,1027.40,10.00,M,CLR,   ,   ,   ,M,M,M,M,M,M,M,M,M,M,M,16.06,KIPT 151700Z 01014KT 10SM CLR/// M02/M09 A3032 RMK CLR BLO SLP274 T10221094 51020
IPT,1996-01-15 18:00,28.04,12.92,52.57,350.00,8.00,M,30.34,1028.20,10.00,M,CLR,   ,   ,   ,M,M,M,M,M,M,M,M,M,M,M,19.24,KIPT 151800Z 35008KT 10SM CLR/// M02/M11 A3034 RMK CLR BLO 933036 51029 10034 20018; SLP282 T10221106 51020
IPT,1996-01-15 19:00,26.06,10.94,52.25,20.00,7.00,M,30.37,1029.20,10.00,M,CLR,   ,   ,   ,M,M,M,M,M,M,M,M,M,M,M,17.54,KIPT 151900Z 02007KT 10SM CLR/// M03/M12 A3037 RMK CLR BLO SLP292 T10331117 51020
IPT,1996-01-15 20:00,24.98,8.06,48.03,20.00,8.00,M,30.39,1030.00,10.00,M,CLR,   ,   ,   ,M,M,M,M,M,M,M,M,M,M,M,15.47,KIPT 152000Z 02008KT 10SM CLR/// M04/M13 A3039 RMK CLR BLO SLP300 T10391133 51020
IPT,1996-01-15 21:00,24.98,5.00,41.80,20.00,7.00,M,30.42,1030.80,10.00,M,CLR,   ,   ,   ,M,M,M,M,M,M,M,M,M,M,M,16.22,KIPT 152100Z 02007KT 10SM CLR/// M04/M15 A3042 RMK CLR BLO 51024; SLP308 T10391150 51020
IPT,1996-01-15 22:00,23.00,6.08,47.70,10.00,7.00,M,30.46,1032.20,10.00,M,CLR,   ,   ,   ,M,M,M,M,M,M,M,M,M,M,M,13.81,KIPT 152200Z 01007KT 10SM CLR/// M05/M14 A3046 RMK CLR BLO SLP322 T10501144 51020
IPT,1996-01-15 23:00,19.94,6.08,54.30,360.00,5.00,M,30.49,1033.20,10.00,M,CLR,   ,   ,   ,M,M,M,M,M,M,M,M,M,M,M,12.07,KIPT 152300Z 36005KT 10SM CLR/// M07/M14 A3049 RMK CLR BLO SLP332 T10671144 51020
IPT,1996-01-16 00:00,15.98,3.02,55.95,140.00,3.00,M,30.52,1034.30,10.00,M,CLR,   ,   ,   ,M,M,M,M,M,M,M,M,M,M,M,10.37,KIPT 160000Z 14003KT 10SM CLR/// M09/M16 A3052 RMK CLR BLO 51035 10034 20017; SLP343 T10891161 411781628 51020
IPT,1996-01-16 01:00,15.98,3.02,55.95,30.00,4.00,M,30.52,1034.50,10.00,M,CLR,   ,   ,   ,M,M,M,M,M,M,M,M,M,M,M,8.71,KIPT 160100Z 03004KT 10SM CLR/// M09/M16 A3052 RMK CLR BLO SLP345 T10891161 51020
IPT,1996-01-16 02:00,14.00,3.92,63.59,0.00,0.00,M,30.53,1034.80,10.00,M,CLR,   ,   ,   ,M,M,M,M,M,M,M,M,M,M,M,14.00,KIPT 160200Z 00000KT 10SM CLR/// M10/M16 A3053 RMK CLR BLO SLP348 T11001156 51020
IPT,1996-01-16 03:00,10.04,1.94,69.14,0.00,0.00,M,30.57,1035.30,10.00,M,CLR,   ,   ,   ,M,M,M,M,M,M,M,M,M,M,M,10.04,KIPT 160300Z 00000KT 10SM CLR/// M12/M17 A//// RMK SLP353 T11221167
IPT,1996-01-16 04:00,10.04,1.94,69.14,20.00,3.00,M,30.58,1035.40,10.00,M,CLR,   ,   ,   ,M,M,M,M,M,M,M,M,M,M,M,3.58,KIPT 160400Z 02003KT 10SM CLR/// M12/M17 A//// RMK SLP354 T11221167
IPT,1996-01-16 05:00,6.08,-0.04,75.36,0.00,0.00,M,30.56,1035.80,10.00,M,CLR,   ,   ,   ,M,M,M,M,M,M,M,M,M,M,M,6.08,KIPT 160500Z 00000KT 10SM CLR/// M14/M18 A3056 RMK CLR BLO 400350005; SLP358 T11441178 51020
IPT,1996-01-16 06:00,5.00,-0.04,79.17,0.00,0.00,M,30.56,1035.80,10.00,M,CLR,   ,   ,   ,M,M,M,M,M,M,M,M,M,M,M,5.00,KIPT 160600Z 00000KT 10SM CLR/// M15/M18 A3056 RMK CLR BLO 50005 10034 20002; SLP358 T11501178 51020
IPT,1996-01-16 07:00,3.92,-0.94,79.74,130.00,4.00,M,30.55,1035.50,10.00,M,CLR,   ,   ,   ,M,M,M,M,M,M,M,M,M,M,M,-5.37,KIPT 160700Z 13004KT 10SM CLR/// M16/M18 A3055 RMK CLR BLO SLP355 T11561183 51020
IPT,1996-01-16 08:00,3.02,-2.92,75.68,70.00,3.00,M,30.54,1035.30,10.00,M,CLR,   ,   ,   ,M,M,M,M,M,M,M,M,M,M,M,-4.44,KIPT 160800Z 07003KT 10SM CLR/// M16/M19 A3054 RMK CLR BLO SLP353 T11611194 51020
IPT,1996-01-16 09:00,3.02,-0.94,83.12,0.00,0.00,M,30.52,1034.50,10.00,M,CLR,   ,   ,   ,M,M,M,M,M,M,M,M,M,M,M,3.02,KIPT 160900Z 00000KT 10SM CLR/// M16/M18 A3052 RMK CLR BLO 58015; SLP345 T11611183 51020
IPT,1996-01-16 10:00,-0.04,-4.00,82.89,110.00,6.00,M,30.51,1034.30,10.00,M,CLR,   ,   ,   ,M,M,M,M,M,M,M,M,M,M,M,-13.06,KIPT 161000Z 11006KT 10SM CLR/// M18/M20 A3051 RMK CLR BLO SLP343 T11781200 51020
IPT,1996-01-16 11:00,1.04,-5.08,74.83,100.00,4.00,M,30.53,1035.10,10.00,M,CLR,   ,   ,   ,M,M,M,M,M,M,M,M,M,M,M,-8.73,KIPT 161100Z 10004KT 10SM CLR/// M17/M21 A3053 RMK CLR BLO SLP351 T11721206 51020
IPT,1996-01-16 12:00,3.02,-2.02,78.99,100.00,6.00,M,30.54,1035.30,10.00,M,OVC,   ,   ,   ,3600.00,M,M,M,M,M,M,M,M,M,M,-9.37,KIPT 161200Z 10006KT 10SM OVC036 M16/M19 A3054 RMK 53011 10034 21003; SLP353 60018 T11611189 411781633 540/0
IPT,1996-01-16 13:00,6.08,-0.94,72.24,110.00,6.00,M,30.53,1035.10,10.00,M,OVC,   ,   ,   ,3000.00,M,M,M,M,M,M,M,M,M,M,-5.69,KIPT 161300Z 11006KT 10SM OVC030 M14/M18 A3053 RMK SLP351 T11441183
IPT,1996-01-16 14:00,8.96,-0.04,66.16,0.00,0.00,M,30.54,1035.20,10.00,M,OVC,   ,   ,   ,3000.00,M,M,M,M,M,M,M,M,M,M,8.96,KIPT 161400Z 00000KT 10SM OVC030 M13/M18 A3054 RMK SLP352 T11281178
IPT,1996-01-16 15:00,12.92,-0.04,55.47,0.00,0.00,M,30.54,1035.40,10.00,M,SCT,OVC,   ,   ,2900.00,3900.00,M,M,M,M,M,M,M,M,M,12.92,KIPT 161500Z 00000KT 10SM SCT029 OVC039 M11/M18 A3054 RMK 55003; SLP354 T11061178
IPT,1996-01-16 16:00,17.06,-2.02,42.17,60.00,8.00,M,30.53,1034.80,10.00,M,BKN,BKN,OVC,   ,2300.00,2900.00,4300.00,M,M,M,M,M,M,M,M,5.71,KIPT 161600Z 06008KT 10SM BKN023 BKN029 OVC043 M08/M19 A3053 RMK SLP348 T10831189
IPT,1996-01-16 17:00,17.06,-0.04,46.30,50.00,8.00,M,30.48,1033.30,10.00,M,OVC,   ,   ,   ,2300.00,M,M,M,M,M,M,M,M,M,M,5.71,KIPT 161700Z 05008KT 10SM OVC023 M08/M18 A3048 RMK SLP333 T10831178
IPT,1996-01-16 18:00,17.96,1.94,48.85,60.00,7.00,M,30.45,1032.10,10.00,M,OVC,   ,   ,   ,2100.00,M,M,M,M,M,M,M,M,M,M,7.67,KIPT 161800Z 06007KT 10SM OVC021 M08/M17 A3045 RMK 933033 10018 21003; SLP321 60030 T10781167 55080
IPT,1996-01-16 19:00,19.04,3.92,51.11,60.00,6.00,M,30.41,1030.90,10.00,M,OVC,   ,   ,   ,2100.00,M,M,M,M,M,M,M,M,M,M,9.92,KIPT 161900Z 06006KT 10SM OVC021 M07/M16 A3041 RMK SLP309 T10721156
IPT,1996-01-16 20:00,19.94,6.08,54.30,70.00,8.00,M,30.39,1030.30,10.00,M,OVC,   ,   ,   ,1900.00,M,M,M,M,M,M,M,M,M,M,9.26,KIPT 162000Z 07008KT 10SM OVC019 M07/M14 A3039 RMK SLP303 T10671144
IPT,1996-01-16 21:00,21.02,8.96,59.08,60.00,6.00,M,30.38,1029.80,10.00,M,OVC,   ,   ,   ,1700.00,M,M,M,M,M,M,M,M,M,M,12.31,KIPT 162100Z 06006KT 10SM OVC017 M06/M13 A3038 RMK 56023; SLP298 T10611128
IPT,1996-01-16 22:00,19.94,8.96,61.85,130.00,6.00,M,30.35,1029.00,10.00,M,OVC,   ,   ,   ,1700.00,M,M,M,M,M,M,M,M,M,M,11.01,KIPT 162200Z 13006KT 10SM OVC017 M07/M13 A3035 RMK SLP290 T10671128
IPT,1996-01-16 23:00,19.94,8.96,61.85,110.00,5.00,M,30.34,1028.60,10.00,M,OVC,   ,   ,   ,1700.00,M,M,M,M,M,M,M,M,M,M,12.07,KIPT 162300Z 11005KT 10SM OVC017 M07/M13 A3034 RMK SLP286 T10671128
IPT,1996-01-17 00:00,19.94,10.04,64.92,0.00,0.00,M,30.34,1028.60,10.00,M,OVC,   ,   ,   ,1500.00,M,M,M,M,M,M,M,M,M,M,19.94,KIPT 170000Z 00000KT 10SM OVC015 M07/M12 A3034 RMK 56016 10021 21003; SLP286 60017 T10671122 411781639 540/0
IPT,1996-01-17 00:19,M,M,M,0.00,0.00,M,30.33,1028.30,10.00,M,OVC,   ,   ,   ,1300.00,M,M,M,M,M,M,M,M,M,M,M,KIPT 170019Z 00000KT 10SM OVC013 A3033 RMK SLP283
IPT,1996-01-17 01:00,19.94,12.02,70.89,80.00,7.00,M,30.32,1028.00,7.00,M,OVC,   ,   ,   ,1100.00,M,M,M,M,M,M,M,M,M,M,10.08,KIPT 170100Z 08007KT 7SM OVC011 M07/M11 A3032 RMK SLP280 T10671111
IPT,1996-01-17 01:03,M,M,M,70.00,7.00,M,30.32,1027.70,10.00,M,BKN,OVC,   ,   ,900.00,1300.00,M,M,M,M,M,M,M,M,M,M,KIPT 170103Z 07007KT 10SM BKN009 OVC013 A3032 RMK CIG 9V12; SLP277
IPT,1996-01-17 02:00,21.92,19.94,91.94,80.00,11.00,M,30.29,1026.70,4.00,M,OVC,   ,   ,   ,700.00,M,M,M,-FZRA FG,M,M,M,M,M,M,9.73,KIPT 170200Z 08011KT 4SM -FZRA FG OVC007 M06/M07 A3029 RMK ZRB55 PCPN 0000; SLP267 T10561067
IPT,1996-01-17 02:18,M,M,M,60.00,10.00,M,30.28,1026.30,2.50,M,OVC,   ,   ,   ,700.00,M,M,M,-FZRA FG,M,M,M,M,M,M,M,KIPT 170218Z 06010KT 21/2SM -FZRA FG OVC007 A3028 RMK PCPN 0000; SLP263
IPT,1996-01-17 03:00,23.00,23.00,100.00,110.00,5.00,M,30.28,1026.20,2.50,M,OVC,   ,   ,   ,500.00,M,M,M,-FZRA FG,M,M,M,M,M,M,15.71,KIPT 170300Z 11005KT 21/2SM -FZRA FG OVC005 M05/M05 A3028 RMK 6000/ PCPN 0000; SLP262 T10501050 55080
IPT,1996-01-17 03:15,M,M,M,70.00,6.00,M,30.26,1025.80,1.75,M,OVC,   ,   ,   ,500.00,M,M,M,-FZRA FG,M,M,M,M,M,M,M,KIPT 170315Z 07006KT 13/4SM -FZRA FG OVC005 A3026 RMK PCPN 0000; SLP258
IPT,1996-01-17 03:29,M,M,M,100.00,4.00,M,30.26,1025.70,2.00,M,OVC,   ,   ,   ,500.00,M,M,M,-FZRA FG,M,M,M,M,M,M,M,KIPT 170329Z 10004KT 2SM -FZRA FG OVC005 A3026 RMK PCPN 0000; SLP257
IPT,1996-01-17 03:37,M,M,M,90.00,3.00,M,30.27,1025.80,1.75,M,OVC,   ,   ,   ,500.00,M,M,M,-FZRA FG,M,M,M,M,M,M,M,KIPT 170337Z 09003KT 13/4SM -FZRA FG OVC005 A3027 RMK PCPN 0000; SLP258
IPT,1996-01-17 04:00,24.08,24.08,100.00,60.00,9.00,M,30.25,1025.00,2.00,M,OVC,   ,   ,   ,500.00,M,M,M,-FZRA FG,M,M,M,M,M,M,13.67,KIPT 170400Z 06009KT 2SM -FZRA FG OVC005 M04/M04 A3025 RMK PCPN 0000; SLP250 T10441044
IPT,1996-01-17 05:00,26.06,24.08,92.09,40.00,10.00,M,30.21,1024.00,3.00,M,OVC,   ,   ,   ,500.00,M,M,M,-FZRA FG,M,M,M,M,M,M,15.52,KIPT 170500Z 04010KT 3SM -FZRA FG OVC005 M03/M04 A3021 RMK 400251003 PCPN 0000; SLP240 T10331044
IPT,1996-01-17 05:09,M,M,M,50.00,11.00,M,30.21,1023.70,3.00,M,OVC,   ,   ,   ,500.00,M,M,M,FG,M,M,M,M,M,M,M,KIPT 170509Z 05011KT 3SM FG OVC005 A3021 RMK ZRE09 PCPN 0000; SLP237
IPT,1996-01-17 06:00,26.06,24.98,95.61,40.00,12.00,M,30.18,1022.90,3.00,19.00,OVC,   ,   ,   ,500.00,M,M,M,FG,M,M,M,M,M,M,14.44,KIPT 170600Z 04012G19KT 3SM FG OVC005 M03/M04 A3018 RMK 6000/ 10026 21003 ZRE09 PCPN 0000; SLP229 60033 T10331039 55080
IPT,1996-01-17 06:21,M,M,M,30.00,11.00,M,30.18,1022.90,2.00,17.00,OVC,   ,   ,   ,300.00,M,M,M,FG,M,M,M,M,M,M,M,KIPT 170621Z 03011G17KT 2SM FG OVC003 A3018 RMK CIG 2V6 PRESFR; SLP229
IPT,1996-01-17 06:31,M,M,M,100.00,5.00,M,30.19,1023.20,2.50,M,OVC,   ,   ,   ,500.00,M,M,M,FG,M,M,M,M,M,M,M,KIPT 170631Z 10005KT 21/2SM FG OVC005 A3019 RMK CIG 2V6 PRESRR; SLP232
IPT,1996-01-17 06:38,M,M,M,180.00,4.00,M,30.18,1022.80,4.00,M,OVC,   ,   ,   ,500.00,M,M,M,FG,M,M,M,M,M,M,M,KIPT 170638Z 18004KT 4SM FG OVC005 A3018 RMK CIG 2V6 PRESRR; SLP228
IPT,1996-01-17 07:00,26.96,26.96,100.00,40.00,9.00,M,30.17,1022.50,4.00,M,OVC,   ,   ,   ,500.00,M,M,M,FG,M,M,M,M,M,M,17.25,KIPT 170700Z 04009KT 4SM FG OVC005 M03/M03 A3017 RMK PRESFR ; SLP225 T10281028
IPT,1996-01-17 08:00,26.96,26.06,96.35,140.00,4.00,M,30.17,1022.30,4.00,M,OVC,   ,   ,   ,500.00,M,M,M,FG,M,M,M,M,M,M,21.53,KIPT 170800Z 14004KT 4SM FG OVC005 M03/M03 A3017 RMK SLP223 T10281033
IPT,1996-01-17 08:08,M,M,M,80.00,5.00,M,30.16,1022.20,4.00,M,OVC,   ,   ,   ,300.00,M,M,M,FG,M,M,M,M,M,M,M,KIPT 170808Z 08005KT 4SM FG OVC003 A3016 RMK SLP222
IPT,1996-01-17 09:00,28.94,28.04,96.38,160.00,4.00,M,30.14,1021.60,5.00,M,OVC,   ,   ,   ,300.00,M,M,M,FG,M,M,M,M,M,M,23.85,KIPT 170900Z 16004KT 5SM FG OVC003 M02/M02 A3014 RMK 6000/ RB11E30PB30E32 PCPN 0000; SLP216 T10171022 55080
IPT,1996-01-17 09:15,M,M,M,80.00,8.00,M,30.15,1021.60,4.00,M,OVC,   ,   ,   ,500.00,M,M,M,-FZRA FG,M,M,M,M,M,M,M,KIPT 170915Z 08008KT 4SM -FZRA FG OVC005 A3015 RMK RB07E15ZRB15 PCPN 0000; SLP216
IPT,1996-01-17 10:00,30.02,28.94,95.69,90.00,10.00,M,30.14,1021.30,4.00,M,OVC,   ,   ,   ,700.00,M,M,M,-FZRA FG,M,M,M,M,M,M,20.49,KIPT 171000Z 09010KT 4SM -FZRA FG OVC007 M01/M02 A3014 RMK ZRB07 CIG 4V13 PCPN 0002; SLP213 T10111017
IPT,1996-01-17 10:04,M,M,M,90.00,9.00,M,30.14,1021.30,4.00,M,BKN,OVC,   ,   ,1000.00,1700.00,M,M,-FZRA FG,M,M,M,M,M,M,M,KIPT 171004Z 09009KT 4SM -FZRA FG BKN010 OVC017 A3014 RMK CIG 5V12 PCPN 0000; SLP213
IPT,1996-01-17 10:29,M,M,M,80.00,10.00,M,30.13,1021.20,7.00,M,BKN,OVC,   ,   ,1000.00,1600.00,M,M,M,M,M,M,M,M,M,M,KIPT 171029Z 08010KT 7SM BKN010 OVC016 A3013 RMK CIG 7V12 ZRE29 PCPN 0000; SLP212
IPT,1996-01-17 11:00,30.02,28.94,95.69,90.00,7.00,M,30.13,1021.20,5.00,M,OVC,   ,   ,   ,1000.00,M,M,M,FG,M,M,M,M,M,M,22.37,KIPT 171100Z 09007KT 5SM FG OVC010 M01/M02 A3013 RMK OVC V BKN ZRE29 PCPN 0000; SLP212 T10111017
IPT,1996-01-17 11:32,M,M,M,80.00,8.00,M,30.15,1021.60,7.00,M,BKN,OVC,   ,   ,800.00,1200.00,M,M,M,M,M,M,M,M,M,M,KIPT 171132Z 08008KT 7SM BKN008 OVC012 A3015 RMK CIG 6V10; SLP216
IPT,1996-01-17 12:00,30.92,28.94,92.26,90.00,8.00,M,30.15,1021.60,7.00,M,OVC,   ,   ,   ,800.00,M,M,M,M,M,M,M,M,M,M,22.78,KIPT 171200Z 09008KT 7SM OVC008 M01/M02 A3015 RMK 4/016/ 6002/ 70002 10026 20020 CIG 6V12; SLP216 60000 70002 T10061017 55050
IPT,1996-01-17 12:14,M,M,M,80.00,7.00,M,30.16,1021.90,5.00,M,SCT,OVC,   ,   ,800.00,1100.00,M,M,-FZRA FG,M,M,M,M,M,M,M,KIPT 171214Z 08007KT 5SM -FZRA FG SCT008 OVC011 A3016 RMK OVC V BKN RB08E12ZRB12 PCPN 0000; SLP219
IPT,1996-01-17 12:40,M,M,M,80.00,10.00,M,30.15,1021.80,7.00,M,BKN,OVC,   ,   ,1100.00,3200.00,M,M,M,M,M,M,M,M,M,M,KIPT 171240Z 08010KT 7SM BKN011 OVC032 A3015 RMK RB08E12ZRB12E39 PCPN 0000; SLP218
IPT,1996-01-17 13:00,32.00,30.02,92.29,90.00,8.00,M,30.16,1022.00,5.00,M,SCT,OVC,   ,   ,1300.00,3200.00,M,M,FG,M,M,M,M,M,M,24.11,KIPT 171300Z 09008KT 5SM FG SCT013 OVC032 00/M01 A3016 RMK RB08E12ZRB12E39 PCPN 0000; SLP220 T00001011
IPT,1996-01-17 13:17,M,M,M,80.00,8.00,M,30.16,1022.00,7.00,M,BKN,OVC,   ,   ,1100.00,3000.00,M,M,M,M,M,M,M,M,M,M,KIPT 171317Z 08008KT 7SM BKN011 OVC030 A3016 RMK SLP220
IPT,1996-01-17 14:00,32.00,30.02,92.29,70.00,7.00,M,30.19,1022.30,5.00,M,SCT,OVC,   ,   ,1300.00,2800.00,M,M,FG,M,M,M,M,M,M,24.78,KIPT 171400Z 07007KT 5SM FG SCT013 OVC028 00/M01 A//// RMK SLP223 T00001011
IPT,1996-01-17 15:00,33.08,30.02,88.37,70.00,8.00,M,30.19,1022.90,4.00,M,SCT,OVC,   ,   ,1300.00,2800.00,M,M,FG,M,M,M,M,M,M,25.44,KIPT 171500Z 07008KT 4SM FG SCT013 OVC028 01/M01 A3019 RMK 6000/; SLP229 T00061011 55030
IPT,1996-01-17 16:00,33.08,30.02,88.37,80.00,8.00,M,30.21,1023.60,4.00,M,OVC,   ,   ,   ,3000.00,M,M,M,FG,M,M,M,M,M,M,25.44,KIPT 171600Z 08008KT 4SM FG OVC030 01/M01 A3021 RMK SLP236 T00061011
IPT,1996-01-17 17:00,33.98,30.92,88.42,80.00,7.00,M,30.19,1022.90,4.00,M,SCT,BKN,OVC,   ,1300.00,3200.00,7000.00,M,FG,M,M,M,M,M,M,27.19,KIPT 171700Z 08007KT 4SM FG SCT013 BKN032 OVC070 01/M01 A3019 RMK RB23E32 PCPN 0000; SLP229 T00111006
IPT,1996-01-17 17:09,M,M,M,70.00,8.00,M,30.19,1022.90,4.00,M,BKN,BKN,OVC,   ,1300.00,3200.00,5000.00,M,FG,M,M,M,M,M,M,M,KIPT 171709Z 07008KT 4SM FG BKN013 BKN032 OVC050 A3019 RMK SLP229
IPT,1996-01-17 17:36,M,M,M,80.00,8.00,M,30.19,1022.80,4.00,M,SCT,BKN,OVC,   ,1300.00,5000.00,6000.00,M,FG,M,M,M,M,M,M,M,KIPT 171736Z 08008KT 4SM FG SCT013 BKN050 OVC060 A3019 RMK SLP228
IPT,1996-01-17 18:00,35.06,30.92,84.69,70.00,6.00,M,30.18,1022.60,4.00,M,BKN,BKN,   ,   ,3500.00,6000.00,M,M,FG,M,M,M,M,M,M,29.22,KIPT 171800Z 07006KT 4SM FG BKN035 BKN060 02/M01 A3018 RMK 933033 6000/ 10035 20018; SLP226 60001 T00171006 55080
IPT,1996-01-17 19:00,35.96,30.92,81.72,80.00,8.00,M,30.17,1022.40,4.00,M,SCT,BKN,   ,   ,3700.00,5000.00,M,M,DZ,M,M,M,M,M,M,28.99,KIPT 171900Z 08008KT 4SM DZ SCT037 BKN050 02/M01 A3017 RMK SLP224 T00221006
IPT,1996-01-17 20:00,35.96,32.00,85.37,130.00,3.00,M,30.19,1022.90,5.00,M,SCT,BKN,BKN,   ,3600.00,4300.00,10000.00,M,FG,M,M,M,M,M,M,33.22,KIPT 172000Z 13003KT 5SM FG SCT036 BKN043 BKN100 02/00 A3019 RMK BKN V OVC; SLP229 T00220000
IPT,1996-01-17 21:00,35.96,32.00,85.37,110.00,3.00,M,30.20,1023.30,5.00,M,SCT,BKN,   ,   ,3900.00,11000.00,M,M,FG,M,M,M,M,M,M,33.22,KIPT 172100Z 11003KT 5SM FG SCT039 BKN110 02/00 A3020 RMK 53008; SLP233 T00220000
IPT,1996-01-17 22:00,37.04,32.00,81.80,0.00,0.00,M,30.22,1023.70,5.00,M,BKN,   ,   ,   ,12000.00,M,M,M,DZ,M,M,M,M,M,M,37.04,KIPT 172200Z 00000KT 5SM DZ BKN120 03/00 A3022 RMK BKN V SCT; SLP237 T00280000
IPT,1996-01-17 23:00,35.06,32.00,88.47,120.00,3.00,M,30.23,1024.40,5.00,M,OVC,   ,   ,   ,8500.00,M,M,M,FG,M,M,M,M,M,M,32.19,KIPT 172300Z 12003KT 5SM FG OVC085 02/00 A3023 RMK OVC V BKN; SLP244 T00170000
IPT,1996-01-18 00:00,35.96,32.00,85.37,0.00,0.00,M,30.25,1024.70,5.00,M,SCT,OVC,   ,   ,10000.00,11000.00,M,M,FG,M,M,M,M,M,M,35.96,KIPT 180000Z 00000KT 5SM FG SCT100 OVC110 02/00 A3025 RMK 51012 10037 20026; SLP247 60015 T00220000 411781650 540/0
IPT,1996-01-18 01:00,33.98,32.00,92.36,150.00,3.00,M,30.25,1025.10,4.00,M,BKN,   ,   ,   ,12000.00,M,M,M,FG,M,M,M,M,M,M,30.95,KIPT 180100Z 15003KT 4SM FG BKN120 01/00 A3025 RMK BKN V SCT; SLP251 T00110000
IPT,1996-01-18 02:00,33.98,32.00,92.36,130.00,3.00,M,30.27,1025.20,4.00,M,BKN,   ,   ,   ,11000.00,M,M,M,FG,M,M,M,M,M,M,30.95,KIPT 180200Z 13003KT 4SM FG BKN110 01/00 A//// RMK SLP252 T00110000
IPT,1996-01-18 03:00,33.98,32.00,92.36,130.00,4.00,M,30.26,1025.30,4.00,M,CLR,   ,   ,   ,M,M,M,M,FG,M,M,M,M,M,M,29.73,KIPT 180300Z 13004KT 4SM FG CLR/// 01/00 A3026 RMK CLR BLO 51008; SLP253 T00110000 51020
IPT,1996-01-18 04:00,35.06,30.92,84.69,120.00,6.00,M,30.26,1025.10,4.00,M,CLR,   ,   ,   ,M,M,M,M,FG,M,M,M,M,M,M,29.22,KIPT 180400Z 12006KT 4SM FG CLR/// 02/M01 A3026 RMK CLR BLO SLP251 T00171006 51020
IPT,1996-01-18 05:00,37.04,32.00,81.80,0.00,0.00,M,30.26,1025.30,5.00,M,CLR,   ,   ,   ,M,M,M,M,DZ,M,M,M,M,M,M,37.04,KIPT 180500Z 00000KT 5SM DZ CLR/// 03/00 A3026 RMK CLR BLO 400370026; SLP253 T00280000 51020
IPT,1996-01-18 05:28,M,M,M,0.00,0.00,M,30.28,1025.80,5.00,M,BKN,   ,   ,   ,1900.00,M,M,M,DZ,M,M,M,M,M,M,M,KIPT 180528Z 00000KT 5SM DZ BKN019 A3028 RMK SLP258
IPT,1996-01-18 06:00,35.96,32.00,85.37,110.00,7.00,M,30.28,1025.80,5.00,M,SCT,   ,   ,   ,2100.00,M,M,M,FG,M,M,M,M,M,M,29.61,KIPT 180600Z 11007KT 5SM FG SCT021 02/00 A3028 RMK 10038 20026; SLP258 60003 T00220000 55030
IPT,1996-01-18 07:00,37.04,32.00,81.80,80.00,11.00,M,30.27,1025.40,5.00,M,CLR,   ,   ,   ,M,M,M,M,DZ,M,M,M,M,M,M,28.84,KIPT 180700Z 08011KT 5SM DZ CLR/// 03/00 A3027 RMK CLR BLO SLP254 T00280000 51020
IPT,1996-01-18 08:00,37.94,32.00,78.96,60.00,7.00,M,30.27,1025.70,7.00,M,BKN,   ,   ,   ,7500.00,M,M,M,M,M,M,M,M,M,M,32.02,KIPT 180800Z 06007KT 7SM BKN075 03/00 A3027 RMK SLP257 T00330000
IPT,1996-01-18 09:00,37.94,32.00,78.96,70.00,10.00,M,30.26,1025.10,7.00,M,SCT,BKN,BKN,   ,1800.00,8000.00,9500.00,M,M,M,M,M,M,M,M,30.42,KIPT 180900Z 07010KT 7SM SCT018 BKN080 BKN095 03/00 A3026 RMK BKN V SCT; SLP251 T00330000 55080
IPT,1996-01-18 10:00,37.04,32.00,81.80,80.00,4.00,M,30.25,1024.80,5.00,M,BKN,   ,   ,   ,9500.00,M,M,M,DZ,M,M,M,M,M,M,33.31,KIPT 181000Z 08004KT 5SM DZ BKN095 03/00 A3025 RMK SLP248 T00280000
IPT,1996-01-18 11:00,37.04,32.00,81.80,50.00,9.00,M,30.25,1024.90,5.00,M,SCT,   ,   ,   ,9000.00,M,M,M,DZ,M,M,M,M,M,M,29.78,KIPT 181100Z 05009KT 5SM DZ SCT090 03/00 A3025 RMK SLP249 T00280000
IPT,1996-01-18 12:00,37.94,32.00,78.96,40.00,6.00,M,30.27,1025.50,5.00,M,BKN,   ,   ,   ,9500.00,M,M,M,DZ,M,M,M,M,M,M,32.68,KIPT 181200Z 04006KT 5SM DZ BKN095 03/00 A3027 RMK 53003 10038 20034; SLP255 60013 T00330000 411781661 540/0
IPT,1996-01-18 13:00,41.00,37.04,85.67,150.00,11.00,M,30.27,1025.30,5.00,16.00,BKN,BKN,   ,   ,1800.00,3100.00,M,M,FG,M,M,M,M,M,M,33.84,KIPT 181300Z 15011G16KT 5SM FG BKN018 BKN031 05/03 A3027 RMK SLP253 T00500028
IPT,1996-01-18 13:11,M,M,M,150.00,10.00,M,30.27,1025.40,5.00,19.00,BKN,BKN,   ,   ,1300.00,2000.00,M,M,FG,M,M,M,M,M,M,M,KIPT 181311Z 15010G19KT 5SM FG BKN013 BKN020 A3027 RMK BKN V OVC; SLP254
IPT,1996-01-18 14:00,42.98,37.94,82.24,150.00,13.00,M,30.26,1025.20,5.00,M,BKN,OVC,   ,   ,1100.00,1400.00,M,M,DZ,M,M,M,M,M,M,35.64,KIPT 181400Z 15013KT 5SM DZ BKN011 OVC014 06/03 A3026 RMK SLP252 T00610033
IPT,1996-01-18 14:09,M,M,M,160.00,12.00,M,30.27,1025.40,4.00,25.00,BKN,OVC,   ,   ,900.00,1300.00,M,M,DZ,M,M,M,M,M,M,M,KIPT 181409Z 16012G25KT 4SM DZ BKN009 OVC013 A3027 RMK CIG 5V12 WND 13V19; SLP254
IPT,1996-01-18 15:00,42.08,37.94,85.13,170.00,14.00,M,30.27,1025.60,4.00,20.00,OVC,   ,   ,   ,800.00,M,M,M,FG,M,M,M,M,M,M,34.16,KIPT 181500Z 17014G20KT 4SM FG OVC008 06/03 A3027 RMK CIG 6V14; SLP256 T00560033 55030
IPT,1996-01-18 15:29,M,M,M,170.00,8.00,M,30.27,1025.60,2.50,19.00,OVC,   ,   ,   ,800.00,M,M,M,FG,M,M,M,M,M,M,M,KIPT 181529Z 17008G19KT 21/2SM FG OVC008 A3027 RMK SLP256
IPT,1996-01-18 16:00,42.08,39.92,91.98,150.00,7.00,M,30.26,1025.10,2.00,M,OVC,   ,   ,   ,600.00,M,M,M,FG,M,M,M,M,M,M,37.07,KIPT 181600Z 15007KT 2SM FG OVC006 06/04 A3026 RMK SLP251 T00560044
IPT,1996-01-18 16:15,M,M,M,130.00,8.00,M,30.25,1024.80,1.75,M,OVC,   ,   ,   ,600.00,M,M,M,FG,M,M,M,M,M,M,M,KIPT 181615Z 13008KT 13/4SM FG OVC006 A3025 RMK SLP248
IPT,1996-01-18 17:00,41.00,39.02,92.59,80.00,7.00,M,30.23,1024.10,1.25,M,OVC,   ,   ,   ,600.00,M,M,M,FG,M,M,M,M,M,M,35.75,KIPT 181700Z 08007KT 11/4SM FG OVC006 05/04 A3023 RMK SLP241 T00500039
IPT,1996-01-18 18:00,41.00,39.02,92.59,20.00,3.00,M,30.20,1023.10,1.50,M,OVC,   ,   ,   ,400.00,M,M,M,FG,M,M,M,M,M,M,38.98,KIPT 181800Z 02003KT 11/2SM FG OVC004 05/04 A3020 RMK 933030 10043 20034; SLP231 60021 T00500039 55080
IPT,1996-01-18 18:03,M,M,M,360.00,3.00,M,30.20,1022.90,1.00,M,OVC,   ,   ,   ,400.00,M,M,M,FG,M,M,M,M,M,M,M,KIPT 181803Z 36003KT 1SM FG OVC004 A3020 RMK SLP229
IPT,1996-01-18 18:24,M,M,M,350.00,5.00,M,30.18,1022.40,0.75,M,OVC,   ,   ,   ,400.00,M,M,M,FG,M,M,M,M,M,M,M,KIPT 181824Z 35005KT 3/4SM FG OVC004 A3018 RMK CIG 2V6; SLP224
IPT,1996-01-18 19:00,41.00,39.02,92.59,0.00,0.00,M,30.17,1021.90,0.50,M,OVC,   ,   ,   ,200.00,M,M,M,FG,M,M,M,M,M,M,41.00,KIPT 181900Z 00000KT 1/2SM FG OVC002 05/04 A3017 RMK SLP219 T00500039
IPT,1996-01-18 19:14,M,M,M,0.00,0.00,M,30.15,1021.40,0.00,M,OVC,   ,   ,   ,200.00,M,M,M,FG,M,M,M,M,M,M,M,KIPT 181914Z 00000KT 0SM FG OVC002 A3015 RMK SLP214
IPT,1996-01-18 20:00,39.92,39.92,100.00,140.00,3.00,M,30.12,1020.40,0.19,M,OVC,   ,   ,   ,100.00,M,M,M,FG,M,M,M,M,M,M,37.74,KIPT 182000Z 14003KT 3/16SM FG OVC001 04/04 A3012 RMK SLP204 T00440044
IPT,1996-01-18 20:19,M,M,M,0.00,0.00,M,30.11,1020.00,0.50,M,OVC,   ,   ,   ,400.00,M,M,M,FG,M,M,M,M,M,M,M,KIPT 182019Z 00000KT 1/2SM FG OVC004 A3011 RMK SLP200
IPT,1996-01-18 21:00,41.00,41.00,100.00,160.00,3.00,M,30.10,1019.50,0.50,M,OVC,   ,   ,   ,400.00,M,M,M,FG,M,M,M,M,M,M,38.98,KIPT 182100Z 16003KT 1/2SM FG OVC004 05/05 A3010 RMK CIG 1V8; SLP195 T00500050 55060
IPT,1996-01-18 21:24,M,M,M,120.00,6.00,M,30.07,1018.70,0.75,M,SCT,OVC,   ,   ,200.00,600.00,M,M,FG,M,M,M,M,M,M,M,KIPT 182124Z 12006KT 3/4SM FG SCT002 OVC006 A3007 RMK CIG 5V9; SLP187
IPT,1996-01-18 22:00,42.98,42.08,96.60,110.00,8.00,M,30.06,1018.10,0.50,14.00,OVC,   ,   ,   ,900.00,M,M,M,-RA FG,M,M,M,M,M,M,37.64,KIPT 182200Z 11008G14KT 1/2SM -RA FG OVC009 06/06 A3006 RMK CIG 6V14 RB38 PCPN 0001; SLP181 T00610056
IPT,1996-01-18 22:18,M,M,M,110.00,12.00,M,30.06,1018.30,2.00,18.00,BKN,OVC,   ,   ,1000.00,1400.00,M,M,-RA FG,M,M,M,M,M,M,M,KIPT 182218Z 11012G18KT 2SM -RA FG BKN010 OVC014 A3006 RMK CIG 8V12 PCPN 0001; SLP183
IPT,1996-01-18 22:40,M,M,M,110.00,12.00,M,30.05,1017.80,4.00,M,SCT,OVC,   ,   ,1000.00,1600.00,M,M,-RA FG,M,M,M,M,M,M,M,KIPT 182240Z 11012KT 4SM -RA FG SCT010 OVC016 A3005 RMK PCPN 0002; SLP178
IPT,1996-01-18 23:00,46.04,44.96,95.99,110.00,11.00,M,30.05,1017.90,7.00,M,BKN,OVC,   ,   ,800.00,1600.00,M,M,M,M,M,M,M,M,M,40.21,KIPT 182300Z 11011KT 7SM BKN008 OVC016 08/07 A3005 RMK RE52 PCPN 0002; SLP179 T00780072
IPT,1996-01-19 00:00,46.94,44.96,92.78,110.00,9.00,M,30.03,1017.20,7.00,M,SCT,BKN,OVC,   ,800.00,2300.00,7000.00,M,-RA,M,M,M,M,M,M,42.09,KIPT 190000Z 11009KT 7SM -RA SCT008 BKN023 OVC070 08/07 A3003 RMK AO2A 8 SCT M23 BKN OVC 7R- 172/47/45/1109/003/ 4/011 56026 6003/ 10047 20034 BKN V SCT RB17E26 PCPN 0000; SLP172 T00830072
IPT,1996-01-19 01:00,42.98,42.98,100.00,140.00,4.00,M,30.00,1016.30,1.00,M,OVC,   ,   ,   ,1600.00,M,M,M,-RA FG,M,M,M,M,M,M,40.24,KIPT 190100Z 14004KT 1SM -RA FG OVC016 06/06 A3000 RMK VSBY 1/2V13/4 RE02B52 PCPN 0000; SLP163 T00610061
IPT,1996-01-19 01:05,M,M,M,130.00,8.00,M,29.99,1015.80,2.00,M,BKN,OVC,   ,   ,1600.00,2000.00,M,M,-RA FG,M,M,M,M,M,M,M,KIPT 190105Z 13008KT 2SM -RA FG BKN016 OVC020 A2999 RMK VSBY 11/4V3 PCPN 0001; SLP158
IPT,1996-01-19 01:27,M,M,M,100.00,15.00,M,29.97,1015.10,4.00,M,OVC,   ,   ,   ,2100.00,M,M,M,-RA FG,M,M,M,M,M,M,M,KIPT 190127Z 10015KT 4SM -RA FG OVC021 A2997 RMK PCPN 0004 PRESFR; SLP151
IPT,1996-01-19 02:00,48.02,46.94,96.02,90.00,13.00,M,29.95,1014.60,5.00,M,BKN,OVC,   ,   ,1400.00,1900.00,M,M,-RA FG,M,M,M,M,M,M,42.09,KIPT 190200Z 09013KT 5SM -RA FG BKN014 OVC019 09/08 A2995 RMK PCPN 0004 PRESFR; SLP146 T00890083
IPT,1996-01-19 02:26,M,M,M,90.00,6.00,M,29.92,1013.50,0.75,M,OVC,   ,   ,   ,900.00,M,M,M,-RA,M,M,M,M,M,M,M,KIPT 190226Z 09006KT 3/4SM -RA OVC009 A2992 RMK PCPN 0002 WSHFT 0147 PRESFR; SLP135
IPT,1996-01-19 03:00,46.04,46.04,100.00,160.00,6.00,M,29.90,1012.70,0.50,M,OVC,   ,   ,   ,900.00,M,M,M,RA FG,M,M,M,M,M,M,42.44,KIPT 190300Z 16006KT 1/2SM RA FG OVC009 08/08 A2990 RMK 6011/ CIG 6V13 PCPN 0007 WSHFT 0147 PRESFR; SLP127 T00780078 55080
IPT,1996-01-19 03:07,M,M,M,70.00,9.00,M,29.88,1012.10,1.00,M,OVC,   ,   ,   ,900.00,M,M,M,-RA FG,M,M,M,M,M,M,M,KIPT 190307Z 07009KT 1SM -RA FG OVC009 A2988 RMK CIG 7V12 PCPN 0002; SLP121
IPT,1996-01-19 03:20,47.84,46.94,96.67,100.00,12.00,M,29.86,1011.50,1.50,17.00,OVC,   ,   ,   ,900.00,M,M,M,RA FG,M,M,M,M,M,M,42.16,KIPT 190320Z 10012G17KT 11/2SM RA FG OVC009 09/08 A2986 RMK CIG 7V11 PCPN 0004 PRESFR; SLP115 T00880083
IPT,1996-01-19 03:30,48.92,47.84,96.03,90.00,16.00,M,29.86,1011.30,2.00,20.00,OVC,   ,   ,   ,900.00,M,M,M,RA FG,M,M,M,M,M,M,42.47,KIPT 190330Z 09016G20KT 2SM RA FG OVC009 09/09 A2986 RMK CIG 7V14 PCPN 0006 PRESFR; SLP113 T00940088
IPT,1996-01-19 04:00,51.08,50.00,96.07,80.00,15.00,M,29.84,1010.50,4.00,22.00,OVC,   ,   ,   ,1000.00,M,M,M,-RA FG,M,M,M,M,M,M,51.08,KIPT 190400Z 08015G22KT 4SM -RA FG OVC010 11/10 A2984 RMK CIG 8V15 PCPN 0011 PK WND 1026/0332 PRESFR; SLP105 T01060100
IPT,1996-01-19 04:13,M,M,M,70.00,16.00,M,29.83,1010.20,2.00,M,OVC,   ,   ,   ,1000.00,M,M,M,+RA FG,M,M,M,M,M,M,M,KIPT 190413Z 07016KT 2SM +RA FG OVC010 A2983 RMK CIG 8V13 PCPN 0004; SLP102
IPT,1996-01-19 05:00,51.98,51.08,96.73,70.00,16.00,M,29.77,1008.30,3.00,23.00,OVC,   ,   ,   ,800.00,M,M,M,+RA FG,M,M,M,M,M,M,51.98,KIPT 190500Z 07016G23KT 3SM +RA FG OVC008 11/11 A2977 RMK 4/009/ 400520034 PCPN 0015 PRESFR; SLP083 T01110106
IPT,1996-01-19 05:15,M,M,M,80.00,16.00,M,29.76,1008.00,3.00,26.00,OVC,   ,   ,   ,800.00,M,M,M,-RA FG,M,M,M,M,M,M,M,KIPT 190515Z 08016G26KT 3SM -RA FG OVC008 A2976 RMK CIG 7V12 TB00E12 PCPN 0007 PK WND 0826/0505; SLP080
IPT,1996-01-19 05:39,M,M,M,90.00,12.00,M,29.74,1007.50,2.50,M,OVC,   ,   ,   ,800.00,M,M,M,+TSRA FG,M,M,M,M,M,M,M,KIPT 190539Z 09012KT 21/2SM +TSRA FG OVC008 A2974 RMK TB00E12B39 PCPN 0018 PK WND 0826/0505; SLP075
IPT,1996-01-19 06:00,50.00,50.00,100.00,60.00,12.00,M,29.73,1006.80,3.00,M,OVC,   ,   ,   ,1000.00,M,M,M,TSRA FG,M,M,M,M,M,M,44.91,KIPT 190600Z 06012KT 3SM TSRA FG OVC010 10/10 A2973 RMK 6066/ 10052 20034 CIG 8V13 TB00E12B39 PCPN 0029 PK WND 0826/0505; SLP068 60056 T01000100 55060
IPT,1996-01-19 06:09,M,M,M,70.00,11.00,M,29.71,1006.20,3.00,M,OVC,   ,   ,   ,1000.00,M,M,M,+RA FG,M,M,M,M,M,M,M,KIPT 190609Z 07011KT 3SM +RA FG OVC010 A2971 RMK CIG 8V15 TE03 PCPN 0006 PRESFR; SLP062
IPT,1996-01-19 06:30,47.84,47.84,100.00,220.00,5.00,M,29.71,1006.40,1.25,M,OVC,   ,   ,   ,1000.00,M,M,M,RA FG,M,M,M,M,M,M,45.21,KIPT 190630Z 22005KT 11/4SM RA FG OVC010 09/09 A2971 RMK CIG 5V13 TE03 PCPN 0015 PRESFR; SLP064 T00880088
IPT,1996-01-19 06:39,M,M,M,140.00,3.00,M,29.71,1006.30,0.50,M,OVC,   ,   ,   ,1000.00,M,M,M,RA FG,M,M,M,M,M,M,M,KIPT 190639Z 14003KT 1/2SM RA FG OVC010 A2971 RMK CIG 5V13 TE03 PCPN 0018 PRESFR; SLP063
IPT,1996-01-19 07:00,48.92,48.92,100.00,130.00,4.00,M,29.70,1006.00,0.75,M,OVC,   ,   ,   ,1000.00,M,M,M,RA FG,M,M,M,M,M,M,47.18,KIPT 190700Z 13004KT 3/4SM RA FG OVC010 09/09 A2970 RMK CIG 5V12 TE03 PCPN 0022 PRESFR; SLP060 T00940094
IPT,1996-01-19 07:12,M,M,M,80.00,13.00,M,29.68,1005.10,1.50,18.00,OVC,   ,   ,   ,1000.00,M,M,M,-RA FG,M,M,M,M,M,M,M,KIPT 190712Z 08013G18KT 11/2SM -RA FG OVC010 A2968 RMK CIG 7V12 PCPN 0001 PRESFR; SLP051
IPT,1996-01-19 07:18,M,M,M,260.00,6.00,M,29.69,1005.50,0.75,18.00,OVC,   ,   ,   ,1000.00,M,M,M,-RA FG,M,M,M,M,M,M,M,KIPT 190718Z 26006G18KT 3/4SM -RA FG OVC010 A2969 RMK CIG 7V12 PCPN 0001 PRESFR; SLP055
IPT,1996-01-19 08:00,51.98,51.98,100.00,70.00,13.00,M,29.66,1004.60,4.00,19.00,OVC,   ,   ,   ,1000.00,M,M,M,-RA FG,M,M,M,M,M,M,51.98,KIPT 190800Z 07013G19KT 4SM -RA FG OVC010 11/11 A2966 RMK CIG 8V13 PCPN 0008 PRESFR; SLP046 T01110111
IPT,1996-01-19 09:00,51.98,51.08,96.73,50.00,6.00,M,29.59,1002.30,7.00,M,OVC,   ,   ,   ,1000.00,M,M,M,-RA,M,M,M,M,M,M,51.98,KIPT 190900Z 05006KT 7SM -RA OVC010 11/11 A2959 RMK 6031/ PCPN 0001 PRESFR; SLP023 T01110106 55080
IPT,1996-01-19 10:00,53.06,51.98,96.10,60.00,8.00,M,29.54,1000.30,2.50,14.00,OVC,   ,   ,   ,1000.00,M,M,M,RA FG,M,M,M,M,M,M,53.06,KIPT 191000Z 06008G14KT 21/2SM RA FG OVC010 12/11 A2954 RMK PCPN 0009 PRESFR; SLP003 T01170111
IPT,1996-01-19 10:20,50.90,50.90,100.00,0.00,0.00,M,29.53,1000.00,1.50,M,OVC,   ,   ,   ,1000.00,M,M,M,RA FG,M,M,M,M,M,M,50.90,KIPT 191020Z 00000KT 11/2SM RA FG OVC010 11/11 A2953 RMK CIG 8V14 VSBY 3/4V3 PCPN 0004; SLP000 T01050105
IPT,1996-01-19 10:29,M,M,M,60.00,12.00,M,29.51,999.50,1.00,M,OVC,   ,   ,   ,1000.00,M,M,M,-RA FG,M,M,M,M,M,M,M,KIPT 191029Z 06012KT 1SM -RA FG OVC010 A2951 RMK CIG 6V12 VSBY 1/2V4 PCPN 0005; SLP995
IPT,1996-01-19 10:35,M,M,M,80.00,12.00,M,29.51,999.40,2.50,18.00,OVC,   ,   ,   ,1000.00,M,M,M,RA FG,M,M,M,M,M,M,M,KIPT 191035Z 08012G18KT 21/2SM RA FG OVC010 A2951 RMK VSBY 1V5 PCPN 0006 WND 06V12 PRESFR; SLP994
IPT,1996-01-19 11:00,51.98,51.08,96.73,80.00,18.00,M,29.49,998.80,4.00,28.00,OVC,   ,   ,   ,1000.00,M,M,M,-RA FG,M,M,M,M,M,M,51.98,KIPT 191100Z 08018G28KT 4SM -RA FG OVC010 11/11 A2949 RMK PCPN 0008 PK WND 1128/1056 PRESFR; SLP988 T01110106
IPT,1996-01-19 12:00,53.96,51.98,92.99,70.00,17.00,M,29.43,996.50,3.00,22.00,OVC,   ,   ,   ,1000.00,M,M,M,-RA FG,M,M,M,M,M,M,53.96,KIPT 191200Z 07017G22KT 3SM -RA FG OVC010 12/11 A2943 RMK 6052/ 70121 10052 20042 PCPN 0004 WSHFT 1121 PRESFR; SLP965 60051 70122 T01220111 55080
IPT,1996-01-19 12:04,M,M,M,60.00,8.00,M,29.43,996.50,2.00,22.00,OVC,   ,   ,   ,1000.00,M,M,M,RA FG,M,M,M,M,M,M,M,KIPT 191204Z 06008G22KT 2SM RA FG OVC010 A2943 RMK PCPN 0002; SLP965
IPT,1996-01-19 12:26,M,M,M,110.00,8.00,M,29.42,996.20,4.00,22.00,OVC,   ,   ,   ,1000.00,M,M,M,-RA FG,M,M,M,M,M,M,M,KIPT 191226Z 11008G22KT 4SM -RA FG OVC010 A2942 RMK PCPN 0007 PRESFR; SLP962
IPT,1996-01-19 12:38,M,M,M,100.00,7.00,M,29.43,996.60,2.50,M,OVC,   ,   ,   ,1000.00,M,M,M,RA FG,M,M,M,M,M,M,M,KIPT 191238Z 10007KT 21/2SM RA FG OVC010 A2943 RMK VSBY 11/4V5 PCPN 0013 PRESFR; SLP966
IPT,1996-01-19 13:00,55.04,53.06,93.02,80.00,9.00,M,29.40,995.80,7.00,17.00,OVC,   ,   ,   ,1000.00,M,M,M,RA,M,M,M,M,M,M,55.04,KIPT 191300Z 08009G17KT 7SM RA OVC010 13/12 A2940 RMK PCPN 0016 PRESFR; SLP958 T01280117
IPT,1996-01-19 13:29,M,M,M,250.00,9.00,M,29.44,996.80,3.00,20.00,OVC,   ,   ,   ,1200.00,M,M,M,TSRA FG,M,M,M,M,M,M,M,KIPT 191329Z 25009G20KT 3SM TSRA FG OVC012 A2944 RMK TB20 PCPN 0008 PRESRR; SLP968
IPT,1996-01-19 13:41,M,M,M,320.00,4.00,M,29.41,996.00,7.00,16.00,OVC,   ,   ,   ,1200.00,M,M,M,-RA,M,M,M,M,M,M,M,KIPT 191341Z 32004G16KT 7SM -RA OVC012 A2941 RMK TB20E39 PCPN 0008 PRESRR; SLP960
IPT,1996-01-19 14:00,48.92,48.92,100.00,310.00,12.00,M,29.40,995.60,2.50,M,OVC,   ,   ,   ,1000.00,M,M,M,RA FG,M,M,M,M,M,M,43.54,KIPT 191400Z 31012KT 21/2SM RA FG OVC010 09/09 A//// RMK SLP956 T00940094
IPT,1996-01-19 15:00,46.04,46.04,100.00,270.00,9.00,M,29.37,994.50,0.25,M,SCT,OVC,   ,   ,100.00,800.00,M,M,TSRA FG,M,M,M,M,M,M,40.97,KIPT 191500Z 27009KT 1/4SM TSRA FG SCT001 OVC008 08/08 A//// RMK SLP945 T00780078
IPT,1996-01-19 16:00,44.96,44.96,100.00,290.00,10.00,M,29.41,996.00,0.50,M,SCT,BKN,OVC,   ,300.00,1600.00,2200.00,M,+TSRA FG,M,M,M,M,M,M,39.22,KIPT 191600Z 29010KT 1/2SM +TSRA FG SCT003 BKN016 OVC022 07/07 A2941 RMK BKN V OVC TE33B37 PCPN 0079 PRESRR JKL SA AO2A 19 SCT 28 SCT M44 OVC 10+ 150/14/06/2616G21/994/ SE52 PCPN 0000; SLP960 8/556 T00720072
IPT,1996-01-19 16:14,M,M,M,290.00,7.00,M,29.41,995.90,0.50,M,SCT,BKN,OVC,   ,300.00,1200.00,1800.00,M,+RA FG,M,M,M,M,M,M,M,KIPT 191614Z 29007KT 1/2SM +RA FG SCT003 BKN012 OVC018 A2941 RMK BKN V SCT TE14 PCPN 0010; SLP959
IPT,1996-01-19 16:31,M,M,M,360.00,3.00,M,29.39,995.20,1.00,M,SCT,BKN,OVC,   ,300.00,700.00,1600.00,M,+RA FG,M,M,M,M,M,M,M,KIPT 191631Z 36003KT 1SM +RA FG SCT003 BKN007 OVC016 A2939 RMK TE14 PCPN 0019; SLP952
IPT,1996-01-19 16:38,M,M,M,350.00,3.00,M,29.37,994.80,1.50,M,BKN,BKN,OVC,   ,300.00,900.00,1400.00,M,+RA FG,M,M,M,M,M,M,M,KIPT 191638Z 35003KT 11/2SM +RA FG BKN003 BKN009 OVC014 A2937 RMK BKN V OVC TE14 PCPN 0023 PRESFR; SLP948
IPT,1996-01-19 17:00,44.06,44.06,100.00,330.00,3.00,M,29.36,994.10,0.50,M,OVC,   ,   ,   ,300.00,M,M,M,+TSRA FG,M,M,M,M,M,M,42.48,KIPT 191700Z 33003KT 1/2SM +TSRA FG OVC003 07/07 A2936 RMK CIG 1V6 TE14B42 PCPN 0034 PRESFR; SLP941 T00670067
IPT,1996-01-19 17:08,M,M,M,280.00,11.00,M,29.38,994.90,0.25,M,BKN,BKN,OVC,   ,300.00,800.00,1400.00,M,+TSRA FG,M,M,M,M,M,M,M,KIPT 191708Z 28011KT 1/4SM +TSRA FG BKN003 BKN008 OVC014 A2938 RMK CIG 1V5 PCPN 0007; SLP949
IPT,1996-01-19 17:19,M,M,M,290.00,10.00,M,29.36,994.40,1.00,M,SCT,BKN,OVC,   ,100.00,1000.00,2300.00,M,+TSRA FG,M,M,M,M,M,M,M,KIPT 191719Z 29010KT 1SM +TSRA FG SCT001 BKN010 OVC023 A2936 RMK PCPN 0012; SLP944
IPT,1996-01-19 17:34,M,M,M,270.00,21.00,M,29.39,995.30,4.00,27.00,SCT,BKN,OVC,   ,700.00,2200.00,2900.00,M,RA FG,M,M,M,M,M,M,M,KIPT 191734Z 27021G27KT 4SM RA FG SCT007 BKN022 OVC029 A2939 RMK TE34 PCPN 0019 PK WND 2727/1734; SLP953
IPT,1996-01-19 18:00,37.04,35.96,95.82,270.00,27.00,M,29.39,995.40,3.00,31.00,SCT,BKN,OVC,   ,2700.00,3400.00,6000.00,M,+RA FG,M,M,M,M,M,M,24.21,KIPT 191800Z 27027G31KT 3SM +RA FG SCT027 BKN034 OVC060 03/02 A2939 RMK 6182/ 10055 20038 TE34 PCPN 0027 PK WND 2731/1754 PRESRR; SLP954 60014 T00280022 55010
IPT,1996-01-19 19:00,35.96,32.00,85.37,270.00,15.00,M,29.45,997.50,10.00,M,OVC,   ,   ,   ,5000.00,M,M,M,M,M,M,M,M,M,M,25.91,KIPT 191900Z 27015KT 10SM OVC050 02/00 A2945 RMK 10+P- 975/36/32/2715/945/ RE25PB52 PCPN 0003 PK WND 2729/1757 PRESRR; SLP975 T00220000
IPT,1996-01-19 20:00,33.98,26.06,72.45,260.00,16.00,M,29.51,999.60,10.00,M,SCT,OVC,   ,   ,3200.00,5000.00,M,M,M,M,M,M,M,M,M,23.00,KIPT 192000Z 26016KT 10SM SCT032 OVC050 01/M03 A2951 RMK 10+P- 996/34/26/2616/951 ; SLP996 T00111033
IPT,1996-01-19 21:00,30.02,17.06,58.08,260.00,21.00,M,29.60,1002.60,10.00,30.00,SCT,OVC,   ,   ,3900.00,6000.00,M,M,M,M,M,M,M,M,M,16.21,KIPT 192100Z 26021G30KT 10SM SCT039 OVC060 M01/M08 A2960 RMK 6003/ PE1959RB13E14PB14E29 PCPN 0000 PK WND 2538/2037 PRESRR; SLP026 T10111083 55030
IPT,1996-01-19 22:00,24.98,12.92,59.65,260.00,21.00,M,29.69,1005.80,10.00,30.00,BKN,OVC,   ,   ,4100.00,7000.00,M,M,M,M,M,M,M,M,M,9.49,KIPT 192200Z 26021G30KT 10SM BKN041 OVC070 M04/M11 A2969 RMK PK WND 2632/2110 PRESRR; SLP058 T10391106
IPT,1996-01-19 23:00,23.00,8.96,54.34,270.00,16.00,M,29.77,1008.50,10.00,28.00,OVC,   ,   ,   ,4400.00,M,M,M,M,M,M,M,M,M,M,8.69,KIPT 192300Z 27016G28KT 10SM OVC044 M05/M13 A2977 RMK PK WND 2732/2239 PRESRR; SLP085 T10501128
IPT,1996-01-20 00:00,21.92,8.96,56.87,280.00,19.00,M,29.85,1011.20,10.00,26.00,BKN,BKN,OVC,   ,5000.00,6000.00,11000.00,M,M,M,M,M,M,M,M,6.11,KIPT 200000Z 28019G26KT 10SM BKN050 BKN060 OVC110 M06/M13 A2985 RMK 6003/ 10055 20022 PK WND 2731/2259 PRESRR IRK SA 2345 200-OVC 20 242/5/-1/0000/017/ 933004 58003 10013 20005; SLP112 60084 T10561128 55010
IPT,1996-01-20 01:00,19.94,6.08,54.30,290.00,21.00,M,29.93,1013.80,10.00,26.00,SCT,OVC,   ,   ,3800.00,5000.00,M,M,M,M,M,M,M,M,M,2.77,KIPT 200100Z 29021G26KT 10SM SCT038 OVC050 M07/M14 A2993 RMK SB27E48 PCPN 0000 PK WND 2727/0001 PRESRR; SLP138 T10671144
IPT,1996-01-20 02:00,19.94,6.08,54.30,280.00,17.00,M,29.99,1016.10,10.00,25.00,BKN,OVC,   ,   ,4900.00,5500.00,M,M,M,M,M,M,M,M,M,4.28,KIPT 200200Z 28017G25KT 10SM BKN049 OVC055 M07/M14 A2999 RMK PK WND 2926/0057; SLP161 T10671144
IPT,1996-01-20 03:00,19.04,6.08,56.43,270.00,18.00,M,30.05,1018.30,10.00,23.00,OVC,   ,   ,   ,4900.00,M,M,M,M,M,M,M,M,M,M,2.69,KIPT 200300Z 27018G23KT 10SM OVC049 M07/M14 A3005 RMK 6000/ PRESRR; SLP183 T10721144 55010
IPT,1996-01-20 04:00,19.04,6.08,56.43,290.00,15.00,M,30.08,1019.30,10.00,24.00,SCT,OVC,   ,   ,4100.00,4800.00,M,M,M,M,M,M,M,M,M,3.98,KIPT 200400Z 29015G24KT 10SM SCT041 OVC048 M07/M14 A3008 RMK PK WND 2726/0301; SLP193 T10721144
IPT,1996-01-20 05:00,19.04,5.00,53.71,270.00,13.00,M,30.12,1020.40,10.00,20.00,OVC,   ,   ,   ,4500.00,M,M,M,M,M,M,M,M,M,M,4.97,KIPT 200500Z 27013G20KT 10SM OVC045 M07/M15 A3012 RMK 400550019; SLP204 T10721150
IPT,1996-01-20 06:00,17.96,5.00,56.26,280.00,11.00,M,30.14,1021.40,10.00,M,SCT,   ,   ,   ,3800.00,M,M,M,M,M,M,M,M,M,M,4.72,KIPT 200600Z 28011KT 10SM SCT038 M08/M15 A3014 RMK 6000/ 10055 20018; SLP214 60031 T10781150 55010
IPT,1996-01-20 07:00,17.06,6.08,61.44,280.00,10.00,M,30.17,1022.20,10.00,M,CLR,   ,   ,   ,M,M,M,M,M,M,M,M,M,M,M,4.23,KIPT 200700Z 28010KT 10SM CLR/// M08/M14 A3017 RMK CLR BLO SLP222 T10831144 51020
IPT,1996-01-20 08:00,17.96,6.98,61.57,270.00,7.00,M,30.21,1023.80,10.00,M,SCT,   ,   ,   ,4100.00,M,M,M,M,M,M,M,M,M,M,7.67,KIPT 200800Z 27007KT 10SM SCT041 M08/M14 A3021 RMK SLP238 T10781139
IPT,1996-01-20 09:00,17.06,6.98,64.01,290.00,9.00,M,30.23,1024.60,10.00,M,CLR,   ,   ,   ,M,M,M,M,M,M,M,M,M,M,M,4.94,KIPT 200900Z 29009KT 10SM CLR/// M08/M14 A3023 RMK CLR BLO 51031; SLP246 T10831139 51020
IPT,1996-01-20 10:00,17.06,8.06,67.21,270.00,12.00,M,30.27,1026.00,10.00,17.00,CLR,   ,   ,   ,M,M,M,M,M,M,M,M,M,M,M,2.99,KIPT 201000Z 27012G17KT 10SM CLR/// M08/M13 A3027 RMK CLR BLO SLP260 T10831133 51020
IPT,1996-01-20 11:00,17.06,8.06,67.21,290.00,9.00,M,30.32,1027.50,10.00,M,CLR,   ,   ,   ,M,M,M,M,M,M,M,M,M,M,M,4.94,KIPT 201100Z 29009KT 10SM CLR/// M08/M13 A3032 RMK CLR BLO SLP275 T10831133 51020
IPT,1996-01-20 12:00,15.98,8.06,70.43,290.00,10.00,M,30.33,1028.10,10.00,M,CLR,   ,   ,   ,M,M,M,M,M,M,M,M,M,M,M,2.88,KIPT 201200Z 29010KT 10SM CLR/// M09/M13 A3033 RMK CLR BLO 51034 70185 10055 20016; SLP281 70185 T10891133 51020
IPT,1996-01-20 13:00,15.08,8.06,73.24,280.00,12.00,M,30.38,1029.50,10.00,M,CLR,   ,   ,   ,M,M,M,M,M,M,M,M,M,M,M,0.47,KIPT 201300Z 28012KT 10SM CLR/// M09/M13 A3038 RMK CLR BLO SLP295 T10941133 51020
IPT,1996-01-20 14:00,15.98,8.96,73.34,280.00,8.00,M,30.41,1030.60,10.00,M,CLR,   ,   ,   ,M,M,M,M,M,M,M,M,M,M,M,4.38,KIPT 201400Z 28008KT 10SM CLR/// M09/M13 A3041 RMK CLR BLO SLP306 T10891128 51020
IPT,1996-01-20 15:00,17.06,8.96,69.99,250.00,10.00,M,30.42,1031.20,10.00,M,CLR,   ,   ,   ,M,M,M,M,M,M,M,M,M,M,M,4.23,KIPT 201500Z 25010KT 10SM CLR/// M08/M13 A3042 RMK CLR BLO 51028; SLP312 T10831128 51020
IPT,1996-01-20 16:00,19.04,8.96,64.28,240.00,7.00,M,30.47,1031.80,10.00,M,CLR,   ,   ,   ,M,M,M,M,M,M,M,M,M,M,M,8.98,KIPT 201600Z 24007KT 10SM CLR/// M07/M13 A//// RMK SLP318 T10721128
IPT,1996-01-20 17:00,19.94,8.96,61.85,250.00,7.00,M,30.43,1031.50,10.00,M,CLR,   ,   ,   ,M,M,M,M,M,M,M,M,M,M,M,10.08,KIPT 201700Z 25007KT 10SM CLR/// M07/M13 A3043 RMK CLR BLO SLP315 T10671128 51020
IPT,1996-01-20 18:00,21.02,8.96,59.08,250.00,4.00,M,30.42,1030.90,10.00,M,CLR,   ,   ,   ,M,M,M,M,M,M,M,M,M,M,M,14.60,KIPT 201800Z 25004KT 10SM CLR/// M06/M13 A3042 RMK CLR BLO 50000 10021 20015; SLP309 T10611128 51020
IPT,1996-01-20 19:00,23.00,8.06,52.18,270.00,3.00,M,30.43,1031.20,10.00,M,CLR,   ,   ,   ,M,M,M,M,M,M,M,M,M,M,M,18.40,KIPT 201900Z 27003KT 10SM CLR/// M05/M13 A3043 RMK CLR BLO SLP312 T10501133 51020
IPT,1996-01-20 20:00,24.08,8.06,49.87,240.00,4.00,M,30.43,1031.20,10.00,M,CLR,   ,   ,   ,M,M,M,M,M,M,M,M,M,M,M,18.17,KIPT 202000Z 24004KT 10SM CLR/// M04/M13 A3043 RMK CLR BLO SLP312 T10441133 51020
IPT,1996-01-20 21:00,24.98,8.06,48.03,0.00,0.00,M,30.43,1031.40,10.00,M,CLR,   ,   ,   ,M,M,M,M,M,M,M,M,M,M,M,24.98,KIPT 202100Z 00000KT 10SM CLR/// M04/M13 A3043 RMK CLR BLO 53006; SLP314 T10391133 51020
IPT,1996-01-20 22:00,23.00,12.02,62.28,0.00,0.00,M,30.44,1031.70,10.00,M,CLR,   ,   ,   ,M,M,M,M,M,M,M,M,M,M,M,23.00,KIPT 202200Z 00000KT 10SM CLR/// M05/M11 A3044 RMK CLR BLO SLP317 T10501111 51020
IPT,1996-01-20 23:00,23.00,10.04,57.03,0.00,0.00,M,30.45,1031.90,10.00,M,CLR,   ,   ,   ,M,M,M,M,M,M,M,M,M,M,M,23.00,KIPT 202300Z 00000KT 10SM CLR/// M05/M12 A3045 RMK CLR BLO SLP319 T10501122 51020
IPT,1996-01-21 00:00,21.02,10.94,64.54,60.00,3.00,M,30.46,1032.40,10.00,M,CLR,   ,   ,   ,M,M,M,M,M,M,M,M,M,M,M,16.14,KIPT 210000Z 06003KT 10SM CLR/// M06/M12 A3046 RMK CLR BLO 53007 10026 20015; SLP324 T10611117 51020
IPT,1996-01-21 01:00,19.94,10.94,67.58,0.00,0.00,M,30.47,1032.60,10.00,M,CLR,   ,   ,   ,M,M,M,M,M,M,M,M,M,M,M,19.94,KIPT 210100Z 00000KT 10SM CLR/// M07/M12 A3047 RMK CLR BLO SLP326 T10671117 51020
IPT,1996-01-21 02:00,19.04,10.94,70.22,0.00,0.00,M,30.46,1032.40,10.00,M,CLR,   ,   ,   ,M,M,M,M,M,M,M,M,M,M,M,19.04,KIPT 210200Z 00000KT 10SM CLR/// M07/M12 A3046 RMK CLR BLO SLP324 T10721117 51020
IPT,1996-01-21 03:00,17.96,12.02,77.17,50.00,3.00,M,30.45,1032.00,10.00,M,CLR,   ,   ,   ,M,M,M,M,M,M,M,M,M,M,M,12.64,KIPT 210300Z 05003KT 10SM CLR/// M08/M11 A3045 RMK CLR BLO 58002; SLP320 T10781111 51020
IPT,1996-01-21 04:00,15.98,12.02,84.06,50.00,5.00,M,30.44,1031.70,10.00,M,CLR,   ,   ,   ,M,M,M,M,M,M,M,M,M,M,M,7.37,KIPT 210400Z 05005KT 10SM CLR/// M09/M11 A3044 RMK CLR BLO SLP317 T10891111 51020
IPT,1996-01-21 05:00,15.98,12.02,84.06,40.00,4.00,M,30.45,1032.20,10.00,M,CLR,   ,   ,   ,M,M,M,M,M,M,M,M,M,M,M,8.71,KIPT 210500Z 04004KT 10SM CLR/// M09/M11 A3045 RMK CLR BLO 400260015; SLP322 T10891111 51020
IPT,1996-01-21 06:00,15.98,12.02,84.06,10.00,3.00,M,30.49,1032.50,10.00,M,OVC,   ,   ,   ,12000.00,M,M,M,M,M,M,M,M,M,M,10.37,KIPT 210600Z 01003KT 10SM OVC120 M09/M11 A//// RMK SLP325 T10891111
IPT,1996-01-21 07:00,15.98,14.00,91.72,80.00,5.00,M,30.45,1032.10,10.00,M,OVC,   ,   ,   ,12000.00,M,M,M,M,M,M,M,M,M,M,7.37,KIPT 210700Z 08005KT 10SM OVC120 M09/M10 A3045 RMK SLP321 T10891100
IPT,1996-01-21 08:00,17.06,10.94,76.47,130.00,6.00,M,30.45,1031.90,10.00,M,OVC,   ,   ,   ,11000.00,M,M,M,M,M,M,M,M,M,M,7.54,KIPT 210800Z 13006KT 10SM OVC110 M08/M12 A3045 RMK SLP319 T10831117
IPT,1996-01-21 09:00,17.96,14.00,84.20,0.00,0.00,M,30.47,1032.80,10.00,M,OVC,   ,   ,   ,11000.00,M,M,M,M,M,M,M,M,M,M,17.96,KIPT 210900Z 00000KT 10SM OVC110 M08/M10 A3047 RMK PRESRR; SLP328 T10781100 55030
IPT,1996-01-21 10:00,19.04,12.92,76.66,120.00,7.00,M,30.45,1032.00,10.00,M,OVC,   ,   ,   ,11000.00,M,M,M,M,M,M,M,M,M,M,8.98,KIPT 211000Z 12007KT 10SM OVC110 M07/M11 A3045 RMK SLP320 T10721106
IPT,1996-01-21 11:00,21.02,12.92,70.46,100.00,6.00,M,30.44,1031.70,10.00,M,OVC,   ,   ,   ,8000.00,M,M,M,M,M,M,M,M,M,M,12.31,KIPT 211100Z 10006KT 10SM OVC080 M06/M11 A3044 RMK SLP317 T10611106
IPT,1996-01-21 12:00,21.92,12.92,67.82,110.00,6.00,M,30.45,1031.80,10.00,M,BKN,OVC,   ,   ,5000.00,7000.00,M,M,M,M,M,M,M,M,M,13.39,KIPT 211200Z 11006KT 10SM BKN050 OVC070 M06/M11 A3045 RMK 10026 20016; SLP318 60006 T10561106 55060
IPT,1996-01-21 13:00,21.92,12.02,65.18,90.00,10.00,M,30.44,1031.70,10.00,M,BKN,OVC,   ,   ,5500.00,7000.00,M,M,M,M,M,M,M,M,M,10.33,KIPT 211300Z 09010KT 10SM BKN055 OVC070 M06/M11 A3044 RMK SLP317 T10561111
IPT,1996-01-21 14:00,23.00,12.02,62.28,70.00,7.00,M,30.46,1032.20,10.00,M,BKN,OVC,   ,   ,3000.00,7000.00,M,M,M,M,M,M,M,M,M,13.81,KIPT 211400Z 07007KT 10SM BKN030 OVC070 M05/M11 A3046 RMK SLP322 T10501111
IPT,1996-01-21 15:00,24.08,12.02,59.52,0.00,0.00,M,30.46,1032.40,10.00,M,OVC,   ,   ,   ,3000.00,M,M,M,M,M,M,M,M,M,M,24.08,KIPT 211500Z 00000KT 10SM OVC030 M04/M11 A3046 RMK 53003; SLP324 T10441111
IPT,1996-01-21 15:18,M,M,M,90.00,5.00,M,30.46,1032.40,10.00,M,OVC,   ,   ,   ,2800.00,M,M,M,M,M,M,M,M,M,M,M,KIPT 211518Z 09005KT 10SM OVC028 A3046 RMK SLP324
IPT,1996-01-21 16:00,24.98,12.92,59.65,40.00,4.00,M,30.46,1032.20,10.00,M,OVC,   ,   ,   ,2800.00,M,M,M,M,M,M,M,M,M,M,19.22,KIPT 211600Z 04004KT 10SM OVC028 M04/M11 A3046 RMK SLP322 T10391106
IPT,1996-01-21 16:23,M,M,M,60.00,5.00,M,30.44,1031.70,10.00,M,OVC,   ,   ,   ,3000.00,M,M,M,M,M,M,M,M,M,M,M,KIPT 211623Z 06005KT 10SM OVC030 A3044 RMK SLP317
IPT,1996-01-21 17:00,24.98,17.06,71.47,90.00,5.00,M,30.43,1031.30,7.00,M,OVC,   ,   ,   ,3000.00,M,M,M,M,M,M,M,M,M,M,18.06,KIPT 211700Z 09005KT 7SM OVC030 M04/M08 A3043 RMK SLP313 T10391083
IPT,1996-01-21 17:30,24.98,17.96,74.29,70.00,8.00,M,30.42,1030.80,10.00,M,SCT,OVC,   ,   ,2200.00,2800.00,M,M,M,M,M,M,M,M,M,15.47,KIPT 211730Z 07008KT 10SM SCT022 OVC028 M04/M08 A3042 RMK SLP308 T10391078
IPT,1996-01-21 18:00,26.06,17.06,68.33,90.00,7.00,M,30.40,1030.40,10.00,M,OVC,   ,   ,   ,2600.00,M,M,M,M,M,M,M,M,M,M,17.54,KIPT 211800Z 09007KT 10SM OVC026 M03/M08 A3040 RMK 10026 20016; SLP304 60018 T10331083 55080
IPT,1996-01-21 19:00,26.06,17.06,68.33,90.00,6.00,M,30.39,1029.90,10.00,M,BKN,OVC,   ,   ,2700.00,4700.00,M,M,-SN,M,M,M,M,M,M,18.38,KIPT 211900Z 09006KT 10SM -SN BKN027 OVC047 M03/M08 A3039 RMK SB15 PCPN 0000; SLP299 T10331083
IPT,1996-01-21 19:13,M,M,M,90.00,7.00,M,30.38,1029.60,10.00,M,SCT,BKN,OVC,   ,2500.00,4500.00,7000.00,M,-SN,M,M,M,M,M,M,M,KIPT 211913Z 09007KT 10SM -SN SCT025 BKN045 OVC070 A3038 RMK BKN V SCT PCPN 0000; SLP296
IPT,1996-01-21 20:00,26.96,17.96,68.44,110.00,5.00,M,30.37,1029.40,10.00,14.00,BKN,BKN,BKN,   ,2500.00,6000.00,7000.00,M,-SN,M,M,M,M,M,M,20.41,KIPT 212000Z 11005G14KT 10SM -SN BKN025 BKN060 BKN070 M03/M08 A3037 RMK SE14B54 PCPN 0000; SLP294 T10281078
IPT,1996-01-21 20:03,M,M,M,80.00,8.00,M,30.37,1029.30,10.00,M,SCT,BKN,OVC,   ,2500.00,5000.00,7000.00,M,-SN,M,M,M,M,M,M,M,KIPT 212003Z 08008KT 10SM -SN SCT025 BKN050 OVC070 A3037 RMK PCPN 0000; SLP293
IPT,1996-01-21 21:00,26.96,17.96,68.44,140.00,3.00,M,30.38,1029.50,10.00,M,OVC,   ,   ,   ,4300.00,M,M,M,-SN,M,M,M,M,M,M,22.93,KIPT 212100Z 14003KT 10SM -SN OVC043 M03/M08 A3038 RMK 6000/ PCPN 0000; SLP295 T10281078 55050
IPT,1996-01-21 22:00,26.96,17.96,68.44,80.00,3.00,M,30.38,1029.50,10.00,M,CLR,   ,   ,   ,M,M,M,M,M,M,M,M,M,M,M,22.93,KIPT 212200Z 08003KT 10SM CLR/// M03/M08 A3038 RMK CLR BLO SE27 PCPN 0000; SLP295 T10281078 51020
IPT,1996-01-21 23:00,24.98,17.96,74.29,0.00,0.00,M,30.39,1029.90,10.00,M,CLR,   ,   ,   ,M,M,M,M,M,M,M,M,M,M,M,24.98,KIPT 212300Z 00000KT 10SM CLR/// M04/M08 A3039 RMK CLR BLO SLP299 T10391078 51020
IPT,1996-01-22 00:00,24.08,17.96,77.14,310.00,3.00,M,30.41,1030.60,10.00,M,CLR,   ,   ,   ,M,M,M,M,M,M,M,M,M,M,M,19.63,KIPT 220000Z 31003KT 10SM CLR/// M04/M08 A3041 RMK CLR BLO 53009 6000/ 10027 20016; SLP306 60000 T10441078 51020
IPT,1996-01-22 01:00,21.92,17.96,84.47,0.00,0.00,M,30.43,1031.40,7.00,M,CLR,   ,   ,   ,M,M,M,M,M,M,M,M,M,M,M,21.92,KIPT 220100Z 00000KT 7SM CLR/// M06/M08 A3043 RMK CLR BLO SLP314 T10561078 51020
IPT,1996-01-22 02:00,21.02,17.96,87.75,0.00,0.00,M,30.44,1031.80,7.00,M,CLR,   ,   ,   ,M,M,M,M,M,M,M,M,M,M,M,21.02,KIPT 220200Z 00000KT 7SM CLR/// M06/M08 A3044 RMK CLR BLO SLP318 T10611078 51020
IPT,1996-01-22 03:00,19.04,17.06,91.84,360.00,3.00,M,30.45,1032.10,7.00,M,CLR,   ,   ,   ,M,M,M,M,M,M,M,M,M,M,M,13.87,KIPT 220300Z 36003KT 7SM CLR/// M07/M08 A3045 RMK CLR BLO 51014; SLP321 T10721083 51020
IPT,1996-01-22 04:00,19.04,17.06,91.84,0.00,0.00,M,30.45,1032.00,7.00,M,CLR,   ,   ,   ,M,M,M,M,M,M,M,M,M,M,M,19.04,KIPT 220400Z 00000KT 7SM CLR/// M07/M08 A3045 RMK CLR BLO SLP320 T10721083 51020
IPT,1996-01-22 05:00,17.06,15.98,95.43,0.00,0.00,M,30.45,1031.90,7.00,M,CLR,   ,   ,   ,M,M,M,M,M,M,M,M,M,M,M,17.06,KIPT 220500Z 00000KT 7SM CLR/// M08/M09 A3045 RMK CLR BLO 400270016; SLP319 T10831089 51020
IPT,1996-01-22 06:00,17.06,15.08,91.76,330.00,3.00,M,30.44,1031.50,7.00,M,CLR,   ,   ,   ,M,M,M,M,M,M,M,M,M,M,M,11.61,KIPT 220600Z 33003KT 7SM CLR/// M08/M09 A3044 RMK CLR BLO 58007 10027 20016; SLP315 T10831094 51020
IPT,1996-01-22 07:00,15.98,14.00,91.72,0.00,0.00,M,30.42,1031.10,7.00,M,SCT,   ,   ,   ,300.00,M,M,M,M,M,M,M,M,M,M,15.98,KIPT 220700Z 00000KT 7SM SCT003 M09/M10 A3042 RMK SLP311 T10891100
IPT,1996-01-22 08:00,15.98,14.00,91.72,0.00,0.00,M,30.43,1031.20,7.00,M,OVC,   ,   ,   ,300.00,M,M,M,M,M,M,M,M,M,M,15.98,KIPT 220800Z 00000KT 7SM OVC003 M09/M10 A3043 RMK SLP312 T10891100
IPT,1996-01-22 08:14,M,M,M,320.00,3.00,M,30.42,1031.10,7.00,M,SCT,   ,   ,   ,300.00,M,M,M,M,M,M,M,M,M,M,M,KIPT 220814Z 32003KT 7SM SCT003 A3042 RMK SLP311
IPT,1996-01-22 08:40,M,M,M,340.00,3.00,M,30.42,1031.00,4.00,M,BKN,   ,   ,   ,100.00,M,M,M,FG,M,M,M,M,M,M,M,KIPT 220840Z 34003KT 4SM FG BKN001 A3042 RMK SLP310
IPT,1996-01-22 09:00,15.98,15.08,96.16,0.00,0.00,M,30.42,1030.90,4.00,M,OVC,   ,   ,   ,100.00,M,M,M,FG,M,M,M,M,M,M,15.98,KIPT 220900Z 00000KT 4SM FG OVC001 M09/M09 A3042 RMK CIG 1V5; SLP309 T10891094 55080
IPT,1996-01-22 10:00,17.06,15.98,95.43,0.00,0.00,M,30.44,1031.70,2.50,M,OVC,   ,   ,   ,100.00,M,M,M,FG,M,M,M,M,M,M,17.06,KIPT 221000Z 00000KT 21/2SM FG OVC001 M08/M09 A3044 RMK SLP317 T10831089
IPT,1996-01-22 10:12,M,M,M,0.00,0.00,M,30.44,1031.70,3.00,M,OVC,   ,   ,   ,300.00,M,M,M,FG,M,M,M,M,M,M,M,KIPT 221012Z 00000KT 3SM FG OVC003 A3044 RMK SLP317
IPT,1996-01-22 11:00,15.98,15.98,100.00,10.00,3.00,M,30.45,1032.00,2.50,M,OVC,   ,   ,   ,300.00,M,M,M,FG,M,M,M,M,M,M,10.37,KIPT 221100Z 01003KT 21/2SM FG OVC003 M09/M09 A3045 RMK SLP320 T10891089
IPT,1996-01-22 11:18,M,M,M,0.00,0.00,M,30.45,1032.20,1.50,M,OVC,   ,   ,   ,300.00,M,M,M,FG,M,M,M,M,M,M,M,KIPT 221118Z 00000KT 11/2SM FG OVC003 A3045 RMK SLP322
IPT,1996-01-22 12:00,15.98,15.08,96.16,0.00,0.00,M,30.46,1032.50,0.75,M,OVC,   ,   ,   ,100.00,M,M,M,FG,M,M,M,M,M,M,15.98,KIPT 221200Z 00000KT 3/4SM FG OVC001 M09/M09 A3046 RMK 10027 20015; SLP325 60015 T10891094 55010
IPT,1996-01-22 12:11,M,M,M,0.00,0.00,M,30.46,1032.40,1.00,M,OVC,   ,   ,   ,100.00,M,M,M,FG,M,M,M,M,M,M,M,KIPT 221211Z 00000KT 1SM FG OVC001 A3046 RMK SLP324
IPT,1996-01-22 12:21,M,M,M,360.00,4.00,M,30.46,1032.50,2.00,M,OVC,   ,   ,   ,100.00,M,M,M,FG,M,M,M,M,M,M,M,KIPT 221221Z 36004KT 2SM FG OVC001 A3046 RMK SLP325
IPT,1996-01-22 12:31,M,M,M,0.00,0.00,M,30.46,1032.50,1.25,M,OVC,   ,   ,   ,100.00,M,M,M,FG,M,M,M,M,M,M,M,KIPT 221231Z 00000KT 11/4SM FG OVC001 A3046 RMK SLP325
IPT,1996-01-22 12:41,M,M,M,0.00,0.00,M,30.47,1032.60,0.50,M,OVC,   ,   ,   ,100.00,M,M,M,FG,M,M,M,M,M,M,M,KIPT 221241Z 00000KT 1/2SM FG OVC001 A3047 RMK SLP326
IPT,1996-01-22 13:00,17.06,15.08,91.76,0.00,0.00,M,30.47,1032.60,0.50,M,OVC,   ,   ,   ,100.00,M,M,M,FG,M,M,M,M,M,M,17.06,KIPT 221300Z 00000KT 1/2SM FG OVC001 M08/M09 A3047 RMK SLP326 T10831094
IPT,1996-01-22 13:17,M,M,M,0.00,0.00,M,30.47,1032.60,1.25,M,OVC,   ,   ,   ,100.00,M,M,M,FG,M,M,M,M,M,M,M,KIPT 221317Z 00000KT 11/4SM FG OVC001 A3047 RMK SLP326
IPT,1996-01-22 13:39,M,M,M,10.00,4.00,M,30.47,1032.70,1.50,M,OVC,   ,   ,   ,100.00,M,M,M,FG,M,M,M,M,M,M,M,KIPT 221339Z 01004KT 11/2SM FG OVC001 A3047 RMK SLP327
IPT,1996-01-22 14:00,17.06,15.08,91.76,350.00,3.00,M,30.47,1032.80,2.00,M,OVC,   ,   ,   ,100.00,M,M,M,FG,M,M,M,M,M,M,11.61,KIPT 221400Z 35003KT 2SM FG OVC001 M08/M09 A3047 RMK SLP328 T10831094
IPT,1996-01-22 14:26,M,M,M,0.00,0.00,M,30.47,1032.70,1.50,M,OVC,   ,   ,   ,300.00,M,M,M,FG,M,M,M,M,M,M,M,KIPT 221426Z 00000KT 11/2SM FG OVC003 A3047 RMK SLP327
IPT,1996-01-22 14:40,M,M,M,0.00,0.00,M,30.47,1032.70,2.00,M,OVC,   ,   ,   ,300.00,M,M,M,FG,M,M,M,M,M,M,M,KIPT 221440Z 00000KT 2SM FG OVC003 A3047 RMK SLP327
IPT,1996-01-22 15:00,17.96,15.98,91.80,0.00,0.00,M,30.47,1032.70,1.50,M,OVC,   ,   ,   ,300.00,M,M,M,FG,M,M,M,M,M,M,17.96,KIPT 221500Z 00000KT 11/2SM FG OVC003 M08/M09 A3047 RMK 50001; SLP327 T10781089
IPT,1996-01-22 15:14,M,M,M,0.00,0.00,M,30.47,1032.80,2.00,M,OVC,   ,   ,   ,300.00,M,M,M,FG,M,M,M,M,M,M,M,KIPT 221514Z 00000KT 2SM FG OVC003 A3047 RMK SLP328
IPT,1996-01-22 15:35,M,M,M,0.00,0.00,M,30.46,1032.60,1.50,M,OVC,   ,   ,   ,300.00,M,M,M,FG,M,M,M,M,M,M,M,KIPT 221535Z 00000KT 11/2SM FG OVC003 A3046 RMK SLP326
IPT,1996-01-22 16:00,17.96,17.06,96.19,80.00,3.00,M,30.45,1032.20,3.00,M,OVC,   ,   ,   ,600.00,M,M,M,FG,M,M,M,M,M,M,12.64,KIPT 221600Z 08003KT 3SM FG OVC006 M08/M08 A3045 RMK CIG 3V8; SLP322 T10781083
IPT,1996-01-22 16:10,M,M,M,0.00,0.00,M,30.45,1032.00,2.50,M,OVC,   ,   ,   ,400.00,M,M,M,FG,M,M,M,M,M,M,M,KIPT 221610Z 00000KT 21/2SM FG OVC004 A3045 RMK CIG 3V7; SLP320
IPT,1996-01-22 16:37,M,M,M,90.00,4.00,M,30.43,1031.50,1.75,M,OVC,   ,   ,   ,400.00,M,M,M,FG,M,M,M,M,M,M,M,KIPT 221637Z 09004KT 13/4SM FG OVC004 A3043 RMK SLP315
IPT,1996-01-22 17:00,19.04,17.96,95.47,0.00,0.00,M,30.43,1031.20,1.50,M,BKN,   ,   ,   ,400.00,M,M,M,FG,M,M,M,M,M,M,19.04,KIPT 221700Z 00000KT 11/2SM FG BKN004 M07/M08 A3043 RMK CIG 2V6; SLP312 T10721078
IPT,1996-01-22 17:06,M,M,M,0.00,0.00,M,30.43,1031.20,1.75,M,SCT,   ,   ,   ,200.00,M,M,M,FG,M,M,M,M,M,M,M,KIPT 221706Z 00000KT 13/4SM FG SCT002 A3043 RMK SLP312
IPT,1996-01-22 17:16,M,M,M,0.00,0.00,M,30.42,1030.90,2.50,M,CLR,   ,   ,   ,M,M,M,M,FG,M,M,M,M,M,M,M,KIPT 221716Z 00000KT 21/2SM FG CLR A3042 RMK CLR BLO SLP309 51020
IPT,1996-01-22 17:29,M,M,M,0.00,0.00,M,30.40,1030.50,3.00,M,CLR,   ,   ,   ,M,M,M,M,FG,M,M,M,M,M,M,M,KIPT 221729Z 00000KT 3SM FG CLR A3040 RMK CLR BLO SLP305 51020
IPT,1996-01-22 18:00,23.00,19.94,87.85,140.00,3.00,M,30.38,1029.80,5.00,M,CLR,   ,   ,   ,M,M,M,M,FG,M,M,M,M,M,M,18.40,KIPT 221800Z 14003KT 5SM FG CLR/// M05/M07 A3038 RMK CLR BLO 58026 10023 20015; SLP298 T10501067 51020
IPT,1996-01-22 19:00,28.94,19.94,68.68,70.00,8.00,M,30.34,1028.20,7.00,M,CLR,   ,   ,   ,M,M,M,M,M,M,M,M,M,M,M,20.34,KIPT 221900Z 07008KT 7SM CLR/// M02/M07 A3034 RMK CLR BLO SLP282 T10171067 51020
IPT,1996-01-22 20:00,30.02,21.02,68.81,80.00,11.00,M,30.33,1027.90,7.00,M,CLR,   ,   ,   ,M,M,M,M,M,M,M,M,M,M,M,19.96,KIPT 222000Z 08011KT 7SM CLR/// M01/M06 A3033 RMK CLR BLO SLP279 T10111061 51020
IPT,1996-01-22 21:00,32.00,21.02,63.51,110.00,6.00,M,30.32,1027.40,10.00,M,CLR,   ,   ,   ,M,M,M,M,M,M,M,M,M,M,M,25.53,KIPT 222100Z 11006KT 10SM CLR/// 00/M06 A3032 RMK CLR BLO 56023; SLP274 T00001061 51020
IPT,1996-01-22 22:00,33.08,21.02,60.81,40.00,6.00,M,30.31,1027.10,7.00,M,CLR,   ,   ,   ,M,M,M,M,M,M,M,M,M,M,M,26.83,KIPT 222200Z 04006KT 7SM CLR/// 01/M06 A3031 RMK CLR BLO SLP271 T00061061 51020
IPT,1996-01-22 23:00,33.08,21.02,60.81,70.00,7.00,M,30.31,1027.00,10.00,M,CLR,   ,   ,   ,M,M,M,M,M,M,M,M,M,M,M,26.10,KIPT 222300Z 07007KT 10SM CLR/// 01/M06 A3031 RMK CLR BLO SLP270 T00061061 51020
IPT,1996-01-23 00:00,30.92,21.02,66.34,190.00,3.00,M,30.30,1026.70,10.00,M,CLR,   ,   ,   ,M,M,M,M,M,M,M,M,M,M,M,27.45,KIPT 230000Z 19003KT 10SM CLR/// M01/M06 A3030 RMK CLR BLO 56006 10033 20015; SLP267 T10061061 51020
IPT,1996-01-23 01:00,33.08,19.94,58.08,60.00,10.00,M,30.28,1026.30,10.00,M,CLR,   ,   ,   ,M,M,M,M,M,M,M,M,M,M,M,24.32,KIPT 230100Z 06010KT 10SM CLR/// 01/M07 A3028 RMK CLR BLO SLP263 T00061067 51020
IPT,1996-01-23 02:00,32.00,21.02,63.51,70.00,8.00,M,30.27,1026.00,10.00,M,CLR,   ,   ,   ,M,M,M,M,M,M,M,M,M,M,M,24.11,KIPT 230200Z 07008KT 10SM CLR/// 00/M06 A3027 RMK CLR BLO SLP260 T00001061 51020
IPT,1996-01-23 03:00,28.04,21.92,77.50,160.00,4.00,M,30.26,1025.40,7.00,M,CLR,   ,   ,   ,M,M,M,M,M,M,M,M,M,M,M,22.80,KIPT 230300Z 16004KT 7SM CLR/// M02/M06 A3026 RMK CLR BLO 58014; SLP254 T10221056 51020
IPT,1996-01-23 04:00,28.04,21.92,77.50,90.00,8.00,M,30.24,1024.90,7.00,M,CLR,   ,   ,   ,M,M,M,M,M,M,M,M,M,M,M,19.24,KIPT 230400Z 09008KT 7SM CLR/// M02/M06 A3024 RMK CLR BLO SLP249 T10221056 51020
IPT,1996-01-23 05:00,30.92,21.92,68.92,70.00,11.00,M,30.22,1024.00,7.00,M,CLR,   ,   ,   ,M,M,M,M,M,M,M,M,M,M,M,21.10,KIPT 230500Z 07011KT 7SM CLR/// M01/M06 A3022 RMK CLR BLO 400330015; SLP240 T10061056 51020
IPT,1996-01-23 06:00,30.92,23.00,72.12,50.00,9.00,M,30.19,1023.10,5.00,M,CLR,   ,   ,   ,M,M,M,M,DZ,M,M,M,M,M,M,22.17,KIPT 230600Z 05009KT 5SM DZ CLR/// M01/M05 A3019 RMK CLR BLO 58022 10033 20015; SLP231 T10061050 51020
IPT,1996-01-23 07:00,30.92,24.08,75.46,100.00,5.00,M,30.19,1022.90,5.00,16.00,CLR,   ,   ,   ,M,M,M,M,DZ,M,M,M,M,M,M,25.11,KIPT 230700Z 10005G16KT 5SM DZ CLR/// M01/M04 A3019 RMK CLR BLO SLP229 T10061044 51020
IPT,1996-01-23 08:00,30.02,24.08,78.27,90.00,9.00,M,30.17,1022.20,5.00,16.00,CLR,   ,   ,   ,M,M,M,M,DZ,M,M,M,M,M,M,21.05,KIPT 230800Z 09009G16KT 5SM DZ CLR/// M01/M04 A3017 RMK CLR BLO SLP222 T10111044 51020
IPT,1996-01-23 09:00,28.94,24.08,81.80,100.00,7.00,M,30.17,1022.20,5.00,M,CLR,   ,   ,   ,M,M,M,M,DZ,M,M,M,M,M,M,21.05,KIPT 230900Z 10007KT 5SM DZ CLR/// M02/M04 A3017 RMK CLR BLO 55007; SLP222 T10171044 51020
IPT,1996-01-23 10:00,28.94,24.08,81.80,160.00,10.00,M,30.15,1021.60,5.00,M,CLR,   ,   ,   ,M,M,M,M,DZ,M,M,M,M,M,M,19.13,KIPT 231000Z 16010KT 5SM DZ CLR/// M02/M04 A3015 RMK CLR BLO SLP216 T10171044 51020
IPT,1996-01-23 11:00,28.04,24.08,84.87,160.00,8.00,M,30.14,1021.30,5.00,M,CLR,   ,   ,   ,M,M,M,M,FG,M,M,M,M,M,M,19.24,KIPT 231100Z 16008KT 5SM FG CLR/// M02/M04 A3014 RMK CLR BLO SLP213 T10221044 51020
IPT,1996-01-23 12:00,26.96,24.08,88.73,90.00,3.00,M,30.12,1020.80,5.00,M,BKN,   ,   ,   ,1400.00,M,M,M,FG,M,M,M,M,M,M,22.93,KIPT 231200Z 09003KT 5SM FG BKN014 M03/M04 A3012 RMK 10033 20026; SLP208 60014 T10281044 55060
IPT,1996-01-23 12:36,M,M,M,90.00,3.00,M,30.14,1021.30,5.00,M,SCT,OVC,   ,   ,1400.00,5000.00,M,M,FG,M,M,M,M,M,M,M,KIPT 231236Z 09003KT 5SM FG SCT014 OVC050 A3014 RMK OVC V BKN; SLP213
IPT,1996-01-23 13:00,28.04,24.08,84.87,100.00,6.00,M,30.13,1021.00,4.00,M,SCT,OVC,   ,   ,1400.00,4800.00,M,M,FG,M,M,M,M,M,M,20.76,KIPT 231300Z 10006KT 4SM FG SCT014 OVC048 M02/M04 A3013 RMK SLP210 T10221044
IPT,1996-01-23 13:21,M,M,M,0.00,0.00,M,30.13,1021.00,4.00,M,BKN,OVC,   ,   ,1400.00,4600.00,M,M,DZ,M,M,M,M,M,M,M,KIPT 231321Z 00000KT 4SM DZ BKN014 OVC046 A3013 RMK SLP210
IPT,1996-01-23 14:00,28.94,24.08,81.80,110.00,4.00,M,30.15,1021.70,4.00,M,SCT,OVC,   ,   ,1200.00,4600.00,M,M,DZ,M,M,M,M,M,M,23.85,KIPT 231400Z 11004KT 4SM DZ SCT012 OVC046 M02/M04 A3015 RMK SLP217 T10171044
IPT,1996-01-23 14:41,M,M,M,100.00,7.00,M,30.14,1021.20,4.00,M,BKN,   ,   ,   ,1300.00,M,M,M,FG,M,M,M,M,M,M,M,KIPT 231441Z 10007KT 4SM FG BKN013 A3014 RMK SLP212
IPT,1996-01-23 15:00,28.94,24.98,84.93,90.00,6.00,M,30.14,1021.40,4.00,M,OVC,   ,   ,   ,1300.00,M,M,M,FG,M,M,M,M,M,M,21.84,KIPT 231500Z 09006KT 4SM FG OVC013 M02/M04 A3014 RMK 50004; SLP214 T10171039
IPT,1996-01-23 16:00,30.02,24.98,81.27,140.00,10.00,M,30.16,1021.40,5.00,M,SCT,SCT,BKN,   ,1300.00,7000.00,9000.00,M,DZ,M,M,M,M,M,M,20.49,KIPT 231600Z 14010KT 5SM DZ SCT013 SCT070 BKN090 M01/M04 A//// RMK SLP214 T10111039
IPT,1996-01-23 17:00,30.02,26.06,85.00,160.00,10.00,M,30.11,1020.30,4.00,15.00,BKN,   ,   ,   ,7500.00,M,M,M,FG,M,M,M,M,M,M,20.49,KIPT 231700Z 16010G15KT 4SM FG BKN075 M01/M03 A3011 RMK PRESFR ; SLP203 T10111033
IPT,1996-01-23 18:00,30.92,24.98,78.35,90.00,4.00,M,30.09,1019.60,4.00,M,SCT,BKN,OVC,   ,1600.00,4100.00,6000.00,M,-SN,M,M,M,M,M,M,26.16,KIPT 231800Z 09004KT 4SM -SN SCT016 BKN041 OVC060 M01/M04 A3009 RMK 6000/ 10031 20023 SB55 PCPN 0000; SLP196 60014 T10061039 55080
IPT,1996-01-23 18:28,M,M,M,100.00,7.00,M,30.07,1018.80,1.25,M,OVC,   ,   ,   ,2300.00,M,M,M,-SN FG,M,M,M,M,M,M,M,KIPT 231828Z 10007KT 11/4SM -SN FG OVC023 A3007 RMK PCPN 0000; SLP188
IPT,1996-01-23 19:00,30.02,28.04,92.23,90.00,8.00,M,30.06,1018.40,0.75,M,SCT,BKN,OVC,   ,900.00,2100.00,3100.00,M,-SN FG,M,M,M,M,M,M,21.67,KIPT 231900Z 09008KT 3/4SM -SN FG SCT009 BKN021 OVC031 M01/M02 A3006 RMK PCPN 0000; SLP184 T10111022
IPT,1996-01-23 19:04,M,M,M,90.00,7.00,M,30.06,1018.60,1.50,M,SCT,BKN,OVC,   ,900.00,2100.00,3100.00,M,-SN FG,M,M,M,M,M,M,M,KIPT 231904Z 09007KT 11/2SM -SN FG SCT009 BKN021 OVC031 A3006 RMK PCPN 0000; SLP186
IPT,1996-01-23 19:15,M,M,M,80.00,8.00,M,30.05,1018.30,2.50,M,SCT,BKN,OVC,   ,900.00,1400.00,2900.00,M,-SN FG,M,M,M,M,M,M,M,KIPT 231915Z 08008KT 21/2SM -SN FG SCT009 BKN014 OVC029 A3005 RMK BKN V SCT PCPN 0000; SLP183
IPT,1996-01-23 19:37,M,M,M,60.00,6.00,M,30.06,1018.40,3.00,M,OVC,   ,   ,   ,1200.00,M,M,M,-SN,M,M,M,M,M,M,M,KIPT 231937Z 06006KT 3SM -SN OVC012 A3006 RMK PCPN 0000; SLP184
IPT,1996-01-23 20:00,30.92,28.04,88.92,80.00,6.00,M,30.05,1018.00,2.00,M,OVC,   ,   ,   ,1200.00,M,M,M,-SN FG,M,M,M,M,M,M,24.23,KIPT 232000Z 08006KT 2SM -SN FG OVC012 M01/M02 A3005 RMK PCPN 0000; SLP180 T10061022
IPT,1996-01-23 20:23,M,M,M,80.00,8.00,M,30.04,1017.90,3.00,M,SCT,BKN,OVC,   ,1200.00,2300.00,3900.00,M,FG,M,M,M,M,M,M,M,KIPT 232023Z 08008KT 3SM FG SCT012 BKN023 OVC039 A3004 RMK SE12 PCPN 0000; SLP179
IPT,1996-01-23 20:32,M,M,M,110.00,8.00,M,30.04,1017.80,2.50,M,SCT,SCT,OVC,   ,1200.00,2300.00,3900.00,M,-SN FG,M,M,M,M,M,M,M,KIPT 232032Z 11008KT 21/2SM -SN FG SCT012 SCT023 OVC039 A3004 RMK SE12B28 PCPN 0000; SLP178
IPT,1996-01-23 21:00,30.92,28.04,88.92,100.00,8.00,M,30.04,1017.70,4.00,M,OVC,   ,   ,   ,3900.00,M,M,M,FG,M,M,M,M,M,M,22.78,KIPT 232100Z 10008KT 4SM FG OVC039 M01/M02 A3004 RMK 6000/ SE12B28E45 PCPN 0000; SLP177 T10061022 55060
IPT,1996-01-23 21:32,M,M,M,150.00,8.00,M,30.03,1017.60,4.00,M,SCT,BKN,OVC,   ,1300.00,2400.00,4100.00,M,FG,M,M,M,M,M,M,M,KIPT 232132Z 15008KT 4SM FG SCT013 BKN024 OVC041 A3003 RMK SLP176
IPT,1996-01-23 22:00,30.92,28.94,92.26,100.00,8.00,M,30.02,1017.20,4.00,M,BKN,BKN,OVC,   ,1100.00,1800.00,3800.00,M,FG,M,M,M,M,M,M,22.78,KIPT 232200Z 10008KT 4SM FG BKN011 BKN018 OVC038 M01/M02 A3002 RMK BKN V SCT; SLP172 T10061017
IPT,1996-01-23 23:00,32.00,28.04,85.12,60.00,7.00,M,30.02,1017.10,5.00,M,SCT,OVC,   ,   ,1300.00,3400.00,M,M,FG,M,M,M,M,M,M,24.78,KIPT 232300Z 06007KT 5SM FG SCT013 OVC034 00/M02 A3002 RMK SLP171 T00001022
IPT,1996-01-23 23:03,M,M,M,40.00,5.00,M,30.03,1017.30,5.00,M,BKN,OVC,   ,   ,1300.00,3400.00,M,M,FG,M,M,M,M,M,M,M,KIPT 232303Z 04005KT 5SM FG BKN013 OVC034 A3003 RMK SLP173
IPT,1996-01-24 00:00,32.00,28.94,88.32,80.00,5.00,M,30.01,1016.70,5.00,M,OVC,   ,   ,   ,1300.00,M,M,M,FG,M,M,M,M,M,M,26.40,KIPT 240000Z 08005KT 5SM FG OVC013 00/M02 A3001 RMK 6000/ 10033 20026 PRESFR; SLP167 60008 T00001017 55060
IPT,1996-01-24 01:00,33.08,30.02,88.37,100.00,6.00,M,29.97,1015.40,5.00,19.00,BKN,OVC,   ,   ,1100.00,3300.00,M,M,FG,M,M,M,M,M,M,26.83,KIPT 240100Z 10006G19KT 5SM FG BKN011 OVC033 01/M01 A2997 RMK SLP154 T00061011
IPT,1996-01-24 01:21,M,M,M,0.00,0.00,M,29.98,1015.60,4.00,M,OVC,   ,   ,   ,900.00,M,M,M,FG,M,M,M,M,M,M,M,KIPT 240121Z 00000KT 4SM FG OVC009 A2998 RMK OVC V BKN; SLP156
IPT,1996-01-24 02:00,32.00,30.02,92.29,70.00,12.00,M,29.94,1014.30,4.00,M,OVC,   ,   ,   ,900.00,M,M,M,FG,M,M,M,M,M,M,22.00,KIPT 240200Z 07012KT 4SM FG OVC009 00/M01 A2994 RMK CIG 8V13 PRESFR; SLP143 T00001011
IPT,1996-01-24 02:27,M,M,M,60.00,12.00,M,29.92,1013.90,4.00,M,OVC,   ,   ,   ,1100.00,M,M,M,FG,M,M,M,M,M,M,M,KIPT 240227Z 06012KT 4SM FG OVC011 A2992 RMK SLP139
IPT,1996-01-24 03:00,33.08,30.02,88.37,60.00,11.00,M,29.91,1013.30,4.00,M,OVC,   ,   ,   ,1500.00,M,M,M,FG,M,M,M,M,M,M,23.83,KIPT 240300Z 06011KT 4SM FG OVC015 01/M01 A2991 RMK PRESFR; SLP133 T00061011 55060
IPT,1996-01-24 03:09,M,M,M,40.00,7.00,M,29.90,1012.90,4.00,16.00,OVC,   ,   ,   ,1300.00,M,M,M,FG,M,M,M,M,M,M,M,KIPT 240309Z 04007G16KT 4SM FG OVC013 A2990 RMK SLP129
IPT,1996-01-24 03:33,M,M,M,70.00,9.00,M,29.88,1012.40,5.00,M,BKN,BKN,   ,   ,1500.00,9000.00,M,M,FG,M,M,M,M,M,M,M,KIPT 240333Z 07009KT 5SM FG BKN015 BKN090 A2988 RMK SLP124
IPT,1996-01-24 04:00,33.08,30.02,88.37,50.00,9.00,M,29.86,1011.90,5.00,M,BKN,OVC,   ,   ,1600.00,10000.00,M,M,FG,M,M,M,M,M,M,24.86,KIPT 240400Z 05009KT 5SM FG BKN016 OVC100 01/M01 A2986 RMK SLP119 T00061011
IPT,1996-01-24 04:15,M,M,M,50.00,10.00,M,29.85,1011.40,5.00,17.00,OVC,   ,   ,   ,1400.00,M,M,M,FG,M,M,M,M,M,M,M,KIPT 240415Z 05010G17KT 5SM FG OVC014 A2985 RMK OVC V BKN; SLP114
IPT,1996-01-24 04:32,M,M,M,60.00,11.00,M,29.84,1011.00,5.00,M,OVC,   ,   ,   ,1600.00,M,M,M,-RA FG,M,M,M,M,M,M,M,KIPT 240432Z 06011KT 5SM -RA FG OVC016 A2984 RMK RB22 PCPN 0000 PRESFR; SLP110
IPT,1996-01-24 05:00,33.08,30.02,88.37,70.00,11.00,M,29.82,1010.40,5.00,M,BKN,BKN,OVC,   ,1600.00,6000.00,9500.00,M,-RA FG,M,M,M,M,M,M,23.83,KIPT 240500Z 07011KT 5SM -RA FG BKN016 BKN060 OVC095 01/M01 A2982 RMK 400340026 BKN V SCT RB22 PCPN 0000 PRESFR ISN SA 0450 CLR 254/-21/-26/0000/007; SLP104 T00061011
IPT,1996-01-24 05:03,M,M,M,50.00,8.00,M,29.81,1010.20,4.00,17.00,SCT,BKN,OVC,   ,1600.00,6000.00,9000.00,M,-RA FG,M,M,M,M,M,M,M,KIPT 240503Z 05008G17KT 4SM -RA FG SCT016 BKN060 OVC090 A2981 RMK PCPN 0001; SLP102
IPT,1996-01-24 05:32,M,M,M,50.00,8.00,M,29.81,1010.10,4.00,M,SCT,BKN,OVC,   ,1500.00,2000.00,6000.00,M,-RA FG,M,M,M,M,M,M,M,KIPT 240532Z 05008KT 4SM -RA FG SCT015 BKN020 OVC060 A2981 RMK PCPN 0003; SLP101
IPT,1996-01-24 06:00,33.08,30.02,88.37,80.00,8.00,M,29.81,1010.10,4.00,16.00,BKN,OVC,   ,   ,1500.00,2000.00,M,M,RA FG,M,M,M,M,M,M,25.44,KIPT 240600Z 08008G16KT 4SM RA FG BKN015 OVC020 01/M01 A2981 RMK 6005/ 10034 20026 PCPN 0005; SLP101 60033 T00061011 55060
IPT,1996-01-24 06:26,M,M,M,50.00,6.00,M,29.80,1009.70,4.00,M,BKN,BKN,OVC,   ,1300.00,2000.00,6000.00,M,RA FG,M,M,M,M,M,M,M,KIPT 240626Z 05006KT 4SM RA FG BKN013 BKN020 OVC060 A2980 RMK BKN V OVC PCPN 0002; SLP097
IPT,1996-01-24 07:00,33.98,30.92,88.42,70.00,9.00,M,29.75,1008.00,4.00,17.00,SCT,OVC,   ,   ,1500.00,6000.00,M,M,RA FG,M,M,M,M,M,M,25.98,KIPT 240700Z 07009G17KT 4SM RA FG SCT015 OVC060 01/M01 A2975 RMK PCPN 0008 PRESFR; SLP080 T00111006
IPT,1996-01-24 08:00,33.98,32.00,92.36,70.00,10.00,M,29.72,1006.80,4.00,17.00,BKN,OVC,   ,   ,1300.00,6500.00,M,M,-RA FG,M,M,M,M,M,M,25.45,KIPT 240800Z 07010G17KT 4SM -RA FG BKN013 OVC065 01/00 A2972 RMK PCPN 0002 WSHFT 0725 PRESFR; SLP068 T00110000
IPT,1996-01-24 09:00,35.96,32.00,85.37,70.00,14.00,M,29.67,1005.00,5.00,27.00,OVC,   ,   ,   ,1300.00,M,M,M,FG,M,M,M,M,M,M,26.27,KIPT 240900Z 07014G27KT 5SM FG OVC013 02/00 A2967 RMK 6011/ RE48 PCPN 0001 PK WND 1127/0852 PRESFR; SLP050 T00220000 55060
IPT,1996-01-24 09:08,M,M,M,60.00,12.00,M,29.67,1005.10,5.00,17.00,BKN,OVC,   ,   ,1500.00,6000.00,M,M,-RA FG,M,M,M,M,M,M,M,KIPT 240908Z 06012G17KT 5SM -RA FG BKN015 OVC060 A2967 RMK RB00 PCPN 0000; SLP051
IPT,1996-01-24 10:00,35.96,32.00,85.37,60.00,8.00,M,29.65,1004.40,5.00,24.00,BKN,OVC,   ,   ,1500.00,6000.00,M,M,-RA FG,M,M,M,M,M,M,28.99,KIPT 241000Z 06008G24KT 5SM -RA FG BKN015 OVC060 02/00 A2965 RMK RB00E13B32 PCPN 0001; SLP044 T00220000
IPT,1996-01-24 11:00,37.04,32.00,81.80,80.00,7.00,M,29.64,1004.00,5.00,M,OVC,   ,   ,   ,1500.00,M,M,M,-RA,M,M,M,M,M,M,30.92,KIPT 241100Z 08007KT 5SM -RA OVC015 03/00 A2964 RMK OVC V BKN PCPN 0004; SLP040 T00280000
IPT,1996-01-24 12:00,37.04,32.00,81.80,110.00,6.00,M,29.62,1003.30,5.00,15.00,BKN,OVC,   ,   ,1300.00,5500.00,M,M,-RA,M,M,M,M,M,M,31.60,KIPT 241200Z 11006G15KT 5SM -RA BKN013 OVC055 03/00 A2962 RMK 6017/ 70022 10034 20032 PCPN 0001; SLP033 60021 70024 T00280000 55060
IPT,1996-01-24 13:00,35.96,30.92,81.72,70.00,9.00,M,29.59,1002.30,4.00,M,BKN,BKN,OVC,   ,1300.00,2100.00,4900.00,M,-RA,M,M,M,M,M,M,28.44,KIPT 241300Z 07009KT 4SM -RA BKN013 BKN021 OVC049 02/M01 A2959 RMK PCPN 0002; SLP023 T00221006
IPT,1996-01-24 13:29,M,M,M,90.00,6.00,M,29.57,1001.90,3.00,16.00,SCT,SCT,OVC,   ,1100.00,3700.00,5000.00,M,RA,M,M,M,M,M,M,M,KIPT 241329Z 09006G16KT 3SM RA SCT011 SCT037 OVC050 A2957 RMK PCPN 0004; SLP019
IPT,1996-01-24 14:00,37.94,30.92,75.58,130.00,7.00,M,29.57,1001.70,4.00,M,SCT,OVC,   ,   ,1100.00,5500.00,M,M,-RA,M,M,M,M,M,M,32.02,KIPT 241400Z 13007KT 4SM -RA SCT011 OVC055 03/M01 A2957 RMK PCPN 0006; SLP017 T00331006
IPT,1996-01-24 15:00,39.92,32.00,73.08,130.00,9.00,M,29.54,1000.90,4.00,17.00,SCT,BKN,OVC,   ,1200.00,4900.00,5500.00,M,-RA,M,M,M,M,M,M,33.36,KIPT 241500Z 13009G17KT 4SM -RA SCT012 BKN049 OVC055 04/00 A2954 RMK 6012/ PCPN 0004; SLP009 T00440000 55060
IPT,1996-01-24 16:00,39.02,32.00,75.69,150.00,23.00,M,29.46,998.10,5.00,30.00,SCT,OVC,   ,   ,4100.00,7000.00,M,M,-RA,M,M,M,M,M,M,27.75,KIPT 241600Z 15023G30KT 5SM -RA SCT041 OVC070 04/00 A2946 RMK PCPN 0003 PK WND 1530/1552 PRESFR; SLP981 T00390000
IPT,1996-01-24 17:00,39.02,37.04,92.53,160.00,26.00,M,29.37,994.70,4.00,M,BKN,BKN,BKN,   ,4200.00,6000.00,8000.00,M,-RA FG,M,M,M,M,M,M,27.11,KIPT 241700Z 16026KT 4SM -RA FG BKN042 BKN060 BKN080 04/03 A//// RMK SLP947 T00390028
IPT,1996-01-24 17:19,M,M,M,160.00,18.00,M,29.37,994.90,4.00,25.00,SCT,SCT,BKN,   ,700.00,1100.00,4200.00,M,-RA FG,M,M,M,M,M,M,M,KIPT 241719Z 16018G25KT 4SM -RA FG SCT007 SCT011 BKN042 A2937 RMK PCPN 0000 PK WND 1631/1704 PRESFR; SLP949
IPT,1996-01-24 17:28,M,M,M,180.00,11.00,M,29.38,995.20,7.00,25.00,BKN,BKN,   ,   ,1100.00,4000.00,M,M,M,M,M,M,M,M,M,M,KIPT 241728Z 18011G25KT 7SM BKN011 BKN040 A2938 RMK RE28 PCPN 0000 PK WND 1631/1704 PRESFR; SLP952
IPT,1996-01-24 17:32,M,M,M,210.00,10.00,M,29.39,995.50,7.00,22.00,BKN,OVC,   ,   ,900.00,4200.00,M,M,M,M,M,M,M,M,M,M,KIPT 241732Z 21010G22KT 7SM BKN009 OVC042 A2939 RMK AO2A M9 BKN OVC 7 955/41/39/2110G22/939/ RE28 PCPN 0000 WSHFT 1717 PK WND 1631/1704 PRESFR LWS SP 1734 AO2A 26 SCT M34 OVC 10+ 058/34/29/2509/967/ TNO SE25 ZRNO PCPN 0000; SLP955
IPT,1996-01-24 18:00,42.08,39.02,88.81,170.00,14.00,M,29.36,994.40,7.00,19.00,BKN,   ,   ,   ,900.00,M,M,M,M,M,M,M,M,M,M,34.16,KIPT 241800Z 17014G19KT 7SM BKN009 06/04 A2936 RMK 6016/ 10043 20030 RE28 PCPN 0000 WSHFT 1717 PK WND 1631/1704 PRESFR; SLP944 60067 T00560039 55060
IPT,1996-01-24 18:09,M,M,M,160.00,12.00,M,29.35,994.00,7.00,19.00,SCT,BKN,BKN,   ,900.00,3400.00,6000.00,M,-RA,M,M,M,M,M,M,M,KIPT 241809Z 16012G19KT 7SM -RA SCT009 BKN034 BKN060 A2935 RMK RB03 PCPN 0000 PRESFR; SLP940
IPT,1996-01-24 19:00,42.98,41.00,92.65,310.00,3.00,M,29.35,994.10,5.00,M,BKN,BKN,   ,   ,3700.00,5500.00,M,M,-RA FG,M,M,M,M,M,M,41.24,KIPT 241900Z 31003KT 5SM -RA FG BKN037 BKN055 06/05 A2935 RMK BKN V SCT RB03 PCPN 0002 PRESFR; SLP941 T00610050
IPT,1996-01-24 19:36,M,M,M,290.00,8.00,M,29.39,995.50,2.50,M,SCT,BKN,OVC,   ,1600.00,2700.00,4900.00,M,-RA FG,M,M,M,M,M,M,M,KIPT 241936Z 29008KT 21/2SM -RA FG SCT016 BKN027 OVC049 A2939 RMK OVC V BKN PCPN 0002 PRESRR; SLP955
IPT,1996-01-24 19:40,M,M,M,280.00,7.00,M,29.39,995.50,5.00,M,SCT,BKN,OVC,   ,1400.00,2900.00,4600.00,M,-RA FG,M,M,M,M,M,M,M,KIPT 241940Z 28007KT 5SM -RA FG SCT014 BKN029 OVC046 A2939 RMK PCPN 0002 PRESRR; SLP955
IPT,1996-01-24 20:00,42.08,41.00,95.92,270.00,12.00,M,29.41,996.30,3.00,16.00,SCT,BKN,OVC,   ,1300.00,2000.00,3400.00,M,RA FG,M,M,M,M,M,M,34.83,KIPT 242000Z 27012G16KT 3SM RA FG SCT013 BKN020 OVC034 06/05 A2941 RMK BKN V SCT PCPN 0004 PRESRR; SLP963 T00560050
IPT,1996-01-24 20:08,M,M,M,320.00,5.00,M,29.39,995.40,5.00,14.00,SCT,BKN,BKN,   ,2100.00,3600.00,4900.00,M,-RA FG,M,M,M,M,M,M,M,KIPT 242008Z 32005G14KT 5SM -RA FG SCT021 BKN036 BKN049 A2939 RMK BKN V SCT PCPN 0000 PRESRR; SLP954
IPT,1996-01-24 21:00,42.08,39.02,88.81,260.00,10.00,M,29.43,996.80,10.00,M,SCT,BKN,   ,   ,4100.00,10000.00,M,M,M,M,M,M,M,M,M,35.61,KIPT 242100Z 26010KT 10SM SCT041 BKN100 06/04 A2943 RMK 6006/ RE12 PCPN 0000 PRESRR; SLP968 T00560039 55030
IPT,1996-01-24 22:00,42.08,30.02,62.04,260.00,11.00,M,29.50,999.40,10.00,19.00,SCT,SCT,BKN,   ,3200.00,4900.00,6000.00,M,M,M,M,M,M,M,M,35.20,KIPT 242200Z 26011G19KT 10SM SCT032 SCT049 BKN060 06/M01 A2950 RMK BKN V SCT RB28E41 PCPN 0000 PK WND 2727/2124 PRESRR; SLP994 T00561011
IPT,1996-01-24 23:00,39.92,30.02,67.45,290.00,12.00,M,29.54,1000.50,10.00,24.00,SCT,SCT,BKN,   ,3200.00,4200.00,6000.00,M,M,M,M,M,M,M,M,32.08,KIPT 242300Z 29012G24KT 10SM SCT032 SCT042 BKN060 04/M01 A2954 RMK SLP005 T00441011
IPT,1996-01-25 00:00,39.02,24.98,56.77,280.00,16.00,M,29.60,1002.80,10.00,22.00,BKN,BKN,BKN,   ,5000.00,6500.00,8000.00,M,M,M,M,M,M,M,M,29.57,KIPT 250000Z 28016G22KT 10SM BKN050 BKN065 BKN080 04/M04 A2960 RMK 6006/ 10045 20033 BKN V SCT PK WND 2728/2325 PRESRR; SLP028 60060 T00391039 55030
IPT,1996-01-25 01:00,37.04,23.00,56.48,270.00,16.00,M,29.67,1004.90,10.00,M,SCT,SCT,   ,   ,4800.00,7000.00,M,M,M,M,M,M,M,M,M,26.99,KIPT 250100Z 27016KT 10SM SCT048 SCT070 03/M05 A//// RMK SLP049 T00281050
IPT,1996-01-25 02:00,35.96,21.92,56.32,270.00,15.00,M,29.71,1006.40,10.00,22.00,OVC,   ,   ,   ,4300.00,M,M,M,M,M,M,M,M,M,M,25.91,KIPT 250200Z 27015G22KT 10SM OVC043 02/M06 A2971 RMK PK WND 2727/0100; SLP064 T00221056
IPT,1996-01-25 03:00,33.08,19.94,58.08,280.00,11.00,M,29.77,1008.40,10.00,22.00,OVC,   ,   ,   ,4100.00,M,M,M,M,M,M,M,M,M,M,23.83,KIPT 250300Z 28011G22KT 10SM OVC041 01/M07 A2977 RMK PK WND 2927/0210; SLP084 T00061067 55030
IPT,1996-01-25 04:00,32.00,19.04,58.37,290.00,18.00,M,29.81,1009.80,10.00,25.00,BKN,OVC,   ,   ,4100.00,5000.00,M,M,M,M,M,M,M,M,M,19.75,KIPT 250400Z 29018G25KT 10SM BKN041 OVC050 00/M07 A2981 RMK BKN V OVC SB28E37 PCPN 0000; SLP098 T00001072
IPT,1996-01-25 05:00,30.02,14.00,50.84,280.00,14.00,M,29.86,1011.50,10.00,21.00,BKN,OVC,   ,   ,3800.00,4700.00,M,M,M,M,M,M,M,M,M,18.61,KIPT 250500Z 28014G21KT 10SM BKN038 OVC047 M01/M10 A2986 RMK BKN V OVC PK WND 2726/0359; SLP115 T10111100
IPT,1996-01-25 06:00,28.04,15.08,57.79,310.00,11.00,M,29.90,1012.90,10.00,M,OVC,   ,   ,   ,4200.00,M,M,M,M,M,M,M,M,M,M,17.46,KIPT 250600Z 31011KT 10SM OVC042 M02/M09 A2990 RMK 6000/ 10045 20028; SLP129 60044 T10221094 55010
IPT,1996-01-25 07:00,26.96,10.94,50.34,290.00,12.00,M,29.94,1014.50,10.00,M,BKN,   ,   ,   ,4200.00,M,M,M,M,M,M,M,M,M,M,15.59,KIPT 250700Z 29012KT 10SM BKN042 M03/M12 A2994 RMK PK WND 2927/0619; SLP145 T10281117
IPT,1996-01-25 08:00,24.98,8.06,48.03,290.00,19.00,M,30.00,1016.50,10.00,23.00,SCT,OVC,   ,   ,4100.00,4900.00,M,M,M,M,M,M,M,M,M,10.15,KIPT 250800Z 29019G23KT 10SM SCT041 OVC049 M04/M13 A3000 RMK SLP165 T10391133
IPT,1996-01-25 09:00,24.98,6.98,45.74,280.00,12.00,M,30.06,1018.40,10.00,M,OVC,   ,   ,   ,4900.00,M,M,M,M,M,M,M,M,M,M,13.07,KIPT 250900Z 28012KT 10SM OVC049 M04/M14 A3006 RMK 53053; SLP184 T10391139
IPT,1996-01-25 10:00,24.08,8.06,49.87,290.00,10.00,M,30.10,1019.80,10.00,21.00,OVC,   ,   ,   ,5500.00,M,M,M,M,M,M,M,M,M,M,13.04,KIPT 251000Z 29010G21KT 10SM OVC055 M04/M13 A3010 RMK SLP198 T10441133
IPT,1996-01-25 11:00,24.08,8.96,51.93,280.00,12.00,M,30.13,1020.80,10.00,M,BKN,   ,   ,   ,5000.00,M,M,M,M,M,M,M,M,M,M,11.92,KIPT 251100Z 28012KT 10SM BKN050 M04/M13 A3013 RMK SLP208 T10441128
IPT,1996-01-25 12:00,24.08,10.94,56.74,310.00,12.00,M,30.16,1021.90,10.00,18.00,SCT,OVC,   ,   ,3800.00,4600.00,M,M,M,M,M,M,M,M,M,11.92,KIPT 251200Z 31012G18KT 10SM SCT038 OVC046 M04/M12 A3016 RMK 70022 10045 20024; SLP219 60034 70024 T10441117 55010
IPT,1996-01-25 13:00,23.00,10.94,59.37,300.00,8.00,M,30.21,1023.50,10.00,M,OVC,   ,   ,   ,4800.00,M,M,M,M,M,M,M,M,M,M,13.03,KIPT 251300Z 30008KT 10SM OVC048 M05/M12 A3021 RMK OVC V BKN; SLP235 T10501117
IPT,1996-01-25 14:00,24.08,12.02,59.52,300.00,10.00,M,30.24,1024.60,10.00,M,OVC,   ,   ,   ,4400.00,M,M,M,-SN,M,M,M,M,M,M,13.04,KIPT 251400Z 30010KT 10SM -SN OVC044 M04/M11 A3024 RMK SB52 PCPN 0000; SLP246 T10441111
IPT,1996-01-25 15:00,24.08,8.06,49.87,290.00,10.00,M,30.28,1026.00,10.00,M,BKN,   ,   ,   ,4500.00,M,M,M,M,M,M,M,M,M,M,13.04,KIPT 251500Z 29010KT 10SM BKN045 M04/M13 A3028 RMK 6000/ SE1359 PCPN 0000 WSHFT 1429; SLP260 T10441133 55010
IPT,1996-01-25 16:00,24.98,6.08,43.91,310.00,14.00,M,30.32,1027.50,10.00,M,SCT,SCT,   ,   ,3700.00,4300.00,M,M,M,M,M,M,M,M,M,12.11,KIPT 251600Z 31014KT 10SM SCT037 SCT043 M04/M14 A3032 RMK SLP275 T10391144
IPT,1996-01-25 17:00,24.98,5.00,41.80,280.00,9.00,M,30.32,1027.30,10.00,M,SCT,   ,   ,   ,4100.00,M,M,M,M,M,M,M,M,M,M,14.78,KIPT 251700Z 28009KT 10SM SCT041 M04/M15 A3032 RMK SLP273 T10391150
IPT,1996-01-25 18:00,26.96,8.06,44.25,290.00,10.00,M,30.31,1026.90,10.00,M,SCT,   ,   ,   ,5000.00,M,M,M,M,M,M,M,M,M,M,16.65,KIPT 251800Z 29010KT 10SM SCT050 M03/M13 A3031 RMK 6000/ 10028 20023; SLP269 60012 T10281133 55000
IPT,1996-01-25 19:00,26.96,5.00,38.50,280.00,5.00,M,30.32,1027.50,10.00,M,CLR,   ,   ,   ,M,M,M,M,M,M,M,M,M,M,M,20.41,KIPT 251900Z 28005KT 10SM CLR/// M03/M15 A3032 RMK CLR BLO SLP275 T10281150 51020
IPT,1996-01-25 20:00,28.04,3.92,35.05,330.00,5.00,M,30.32,1027.60,10.00,M,CLR,   ,   ,   ,M,M,M,M,M,M,M,M,M,M,M,21.69,KIPT 252000Z 33005KT 10SM CLR/// M02/M16 A3032 RMK CLR BLO SLP276 T10221156 51020
IPT,1996-01-25 21:00,28.04,6.98,40.31,300.00,5.00,M,30.34,1028.30,10.00,M,CLR,   ,   ,   ,M,M,M,M,M,M,M,M,M,M,M,21.69,KIPT 252100Z 30005KT 10SM CLR/// M02/M14 A3034 RMK CLR BLO 53011; SLP283 T10221139 51020
IPT,1996-01-25 22:00,26.96,6.98,42.14,220.00,3.00,M,30.37,1029.30,10.00,M,CLR,   ,   ,   ,M,M,M,M,M,M,M,M,M,M,M,22.93,KIPT 252200Z 22003KT 10SM CLR/// M03/M14 A3037 RMK CLR BLO SLP293 T10281139 51020
IPT,1996-01-25 23:00,24.08,12.02,59.52,0.00,0.00,M,30.39,1029.80,10.00,M,CLR,   ,   ,   ,M,M,M,M,M,M,M,M,M,M,M,24.08,KIPT 252300Z 00000KT 10SM CLR/// M04/M11 A3039 RMK CLR BLO SLP298 T10441111 51020
IPT,1996-01-26 00:00,23.00,10.94,59.37,0.00,0.00,M,30.38,1029.60,10.00,M,CLR,   ,   ,   ,M,M,M,M,M,M,M,M,M,M,M,23.00,KIPT 260000Z 00000KT 10SM CLR/// M05/M12 A3038 RMK CLR BLO 50013 10028 20022; SLP296 T10501117 51020
IPT,1996-01-26 01:00,24.08,8.96,51.93,100.00,5.00,M,30.40,1030.20,10.00,M,CLR,   ,   ,   ,M,M,M,M,M,M,M,M,M,M,M,16.99,KIPT 260100Z 10005KT 10SM CLR/// M04/M13 A3040 RMK CLR BLO SLP302 T10441128 51020
IPT,1996-01-26 02:00,21.92,12.02,65.18,100.00,4.00,M,30.40,1030.10,10.00,M,CLR,   ,   ,   ,M,M,M,M,M,M,M,M,M,M,M,15.65,KIPT 260200Z 10004KT 10SM CLR/// M06/M11 A3040 RMK CLR BLO SLP301 T10561111 51020
IPT,1996-01-26 03:00,24.08,10.94,56.74,60.00,8.00,M,30.40,1030.40,10.00,M,BKN,   ,   ,   ,10000.00,M,M,M,M,M,M,M,M,M,M,14.36,KIPT 260300Z 06008KT 10SM BKN100 M04/M12 A3040 RMK 51007; SLP304 T10441117
IPT,1996-01-26 04:00,24.08,8.06,49.87,30.00,5.00,M,30.43,1031.20,10.00,M,SCT,   ,   ,   ,10000.00,M,M,M,M,M,M,M,M,M,M,16.99,KIPT 260400Z 03005KT 10SM SCT100 M04/M13 A3043 RMK PRESRR ; SLP312 T10441133
IPT,1996-01-26 05:00,23.00,8.96,54.34,80.00,7.00,M,30.42,1030.90,10.00,M,CLR,   ,   ,   ,M,M,M,M,M,M,M,M,M,M,M,13.81,KIPT 260500Z 08007KT 10SM CLR/// M05/M13 A3042 RMK CLR BLO 400300021; SLP309 T10501128 51020
IPT,1996-01-26 06:00,23.00,10.04,57.03,70.00,10.00,M,30.42,1030.80,10.00,M,CLR,   ,   ,   ,M,M,M,M,M,M,M,M,M,M,M,11.68,KIPT 260600Z 07010KT 10SM CLR/// M05/M12 A3042 RMK CLR BLO 50005 10028 20021; SLP308 T10501122 51020
IPT,1996-01-26 07:00,23.00,10.04,57.03,60.00,12.00,M,30.39,1030.00,10.00,M,CLR,   ,   ,   ,M,M,M,M,M,M,M,M,M,M,M,10.55,KIPT 260700Z 06012KT 10SM CLR/// M05/M12 A3039 RMK CLR BLO SLP300 T10501122 51020
IPT,1996-01-26 08:00,24.08,10.04,54.51,70.00,12.00,M,30.43,1031.00,10.00,M,CLR,   ,   ,   ,M,M,M,M,M,M,M,M,M,M,M,11.92,KIPT 260800Z 07012KT 10SM CLR/// M04/M12 A3043 RMK CLR BLO SLP310 T10441122 51020
IPT,1996-01-26 09:00,24.08,10.04,54.51,60.00,11.00,M,30.42,1030.70,10.00,M,CLR,   ,   ,   ,M,M,M,M,M,M,M,M,M,M,M,12.46,KIPT 260900Z 06011KT 10SM CLR/// M04/M12 A3042 RMK CLR BLO 53000; SLP307 T10441122 51020
IPT,1996-01-26 10:00,23.00,10.94,59.37,80.00,11.00,M,30.45,1031.90,10.00,M,CLR,   ,   ,   ,M,M,M,M,M,M,M,M,M,M,M,11.09,KIPT 261000Z 08011KT 10SM CLR/// M05/M12 A3045 RMK CLR BLO SLP319 T10501117 51020
IPT,1996-01-26 11:00,24.08,10.94,56.74,90.00,8.00,M,30.45,1032.10,10.00,16.00,CLR,   ,   ,   ,M,M,M,M,M,M,M,M,M,M,M,14.36,KIPT 261100Z 09008G16KT 10SM CLR/// M04/M12 A3045 RMK CLR BLO SLP321 T10441117 51020
IPT,1996-01-26 12:00,23.00,10.94,59.37,70.00,10.00,M,30.48,1032.90,10.00,16.00,CLR,   ,   ,   ,M,M,M,M,M,M,M,M,M,M,M,11.68,KIPT 261200Z 07010G16KT 10SM CLR/// M05/M12 A3048 RMK CLR BLO 51020 10030 20021; SLP329 T10501117 51020
IPT,1996-01-26 12:21,M,M,M,70.00,13.00,M,30.48,1032.80,10.00,21.00,BKN,   ,   ,   ,2800.00,M,M,M,M,M,M,M,M,M,M,M,KIPT 261221Z 07013G21KT 10SM BKN028 A3048 RMK SLP328
IPT,1996-01-26 13:00,23.00,10.94,59.37,70.00,14.00,M,30.47,1032.60,10.00,M,SCT,   ,   ,   ,2600.00,M,M,M,M,M,M,M,M,M,M,9.56,KIPT 261300Z 07014KT 10SM SCT026 M05/M12 A3047 RMK SLP326 T10501117
IPT,1996-01-26 14:00,24.98,10.94,54.65,60.00,12.00,M,30.47,1032.70,10.00,21.00,BKN,   ,   ,   ,2600.00,M,M,M,M,M,M,M,M,M,M,13.07,KIPT 261400Z 06012G21KT 10SM BKN026 M04/M12 A3047 RMK SLP327 T10391117
IPT,1996-01-26 15:00,26.06,14.00,59.81,90.00,8.00,M,30.50,1033.60,10.00,M,OVC,   ,   ,   ,2600.00,M,M,M,M,M,M,M,M,M,M,16.80,KIPT 261500Z 09008KT 10SM OVC026 M03/M10 A3050 RMK 53006; SLP336 T10331100
IPT,1996-01-26 16:00,28.04,17.06,62.97,70.00,10.00,M,30.51,1033.10,10.00,M,BKN,   ,   ,   ,2600.00,M,M,M,M,M,M,M,M,M,M,18.00,KIPT 261600Z 07010KT 10SM BKN026 M02/M08 A//// RMK SLP331 T10221083
IPT,1996-01-26 17:00,30.02,19.94,65.72,50.00,11.00,M,30.47,1032.70,10.00,M,BKN,   ,   ,   ,2400.00,M,M,M,M,M,M,M,M,M,M,19.96,KIPT 261700Z 05011KT 10SM BKN024 M01/M07 A3047 RMK SLP327 T10111067
IPT,1996-01-26 17:11,M,M,M,70.00,12.00,M,30.47,1032.50,10.00,17.00,SCT,   ,   ,   ,2600.00,M,M,M,M,M,M,M,M,M,M,M,KIPT 261711Z 07012G17KT 10SM SCT026 A3047 RMK WSHFT WND 04V10; SLP325 8/652
IPT,1996-01-26 18:00,32.00,21.02,63.51,100.00,4.00,M,30.42,1030.90,10.00,15.00,SCT,   ,   ,   ,2800.00,M,M,M,M,M,M,M,M,M,M,27.42,KIPT 261800Z 10004G15KT 10SM SCT028 00/M06 A3042 RMK 10032 20021 WSHFT 1652 PRESFR; SLP309 60024 T00001061 55080
IPT,1996-01-26 19:00,33.98,21.92,60.93,150.00,17.00,M,30.40,1030.00,10.00,23.00,CLR,   ,   ,   ,M,M,M,M,M,M,M,M,M,M,M,22.67,KIPT 261900Z 15017G23KT 10SM CLR/// 01/M06 A3040 RMK CLR BLO PRESFR; SLP300 T00111056 51020
IPT,1996-01-26 20:00,35.06,21.92,58.37,70.00,8.00,M,30.41,1030.20,10.00,17.00,CLR,   ,   ,   ,M,M,M,M,M,M,M,M,M,M,M,27.88,KIPT 262000Z 07008G17KT 10SM CLR/// 02/M06 A3041 RMK CLR BLO SLP302 T00171056 51020
IPT,1996-01-26 21:00,35.96,21.92,56.32,110.00,11.00,M,30.40,1030.20,10.00,17.00,CLR,   ,   ,   ,M,M,M,M,M,M,M,M,M,M,M,27.47,KIPT 262100Z 11011G17KT 10SM CLR/// 02/M06 A3040 RMK CLR BLO 56009; SLP302 T00221056 51020
IPT,1996-01-26 22:00,35.06,21.92,58.37,100.00,7.00,M,30.42,1030.80,10.00,15.00,CLR,   ,   ,   ,M,M,M,M,M,M,M,M,M,M,M,28.51,KIPT 262200Z 10007G15KT 10SM CLR/// 02/M06 A3042 RMK CLR BLO SLP308 T00171056 51020
IPT,1996-01-26 23:00,35.06,23.00,61.08,110.00,11.00,M,30.40,1030.20,10.00,M,SCT,   ,   ,   ,11000.00,M,M,M,M,M,M,M,M,M,M,26.33,KIPT 262300Z 11011KT 10SM SCT110 02/M05 A3040 RMK SLP302 T00171050
IPT,1996-01-27 00:00,35.96,24.08,61.67,120.00,12.00,M,30.39,1029.70,10.00,24.00,OVC,   ,   ,   ,3300.00,M,M,M,M,M,M,M,M,M,M,27.04,KIPT 270000Z 12012G24KT 10SM OVC033 02/M04 A3039 RMK 6000/ 10036 20023 RB38E39PB39E43RB43E47PB47E55 PCPN 0000; SLP297 60003 T00221044 55080
IPT,1996-01-27 00:14,M,M,M,120.00,18.00,M,30.38,1029.40,10.00,23.00,OVC,   ,   ,   ,2900.00,M,M,M,M,M,M,M,M,M,M,M,KIPT 270014Z 12018G23KT 10SM OVC029 A3038 RMK SLP294
IPT,1996-01-27 01:00,35.96,23.00,58.94,110.00,14.00,M,30.37,1028.90,10.00,22.00,OVC,   ,   ,   ,2900.00,M,M,M,M,M,M,M,M,M,M,26.27,KIPT 270100Z 11014G22KT 10SM OVC029 02/M05 A3037 RMK PK WND 1226/0032; SLP289 T00221050
IPT,1996-01-27 01:10,M,M,M,110.00,14.00,M,30.36,1028.60,10.00,26.00,OVC,   ,   ,   ,3100.00,M,M,M,M,M,M,M,M,M,M,M,KIPT 270110Z 11014G26KT 10SM OVC031 A3036 RMK PK WND 1026/0102; SLP286
IPT,1996-01-27 01:31,M,M,M,110.00,16.00,M,30.34,1027.90,10.00,M,OVC,   ,   ,   ,2900.00,M,M,M,M,M,M,M,M,M,M,M,KIPT 270131Z 11016KT 10SM OVC029 A3034 RMK PK WND 1026/0102; SLP279
IPT,1996-01-27 02:00,35.96,24.98,64.03,90.00,12.00,M,30.33,1027.60,10.00,19.00,OVC,   ,   ,   ,2700.00,M,M,M,M,M,M,M,M,M,M,27.04,KIPT 270200Z 09012G19KT 10SM OVC027 02/M04 A3033 RMK PK WND 1026/0102; SLP276 T00221039
IPT,1996-01-27 02:38,M,M,M,90.00,12.00,M,30.30,1026.80,2.50,M,OVC,   ,   ,   ,2500.00,M,M,M,-SN,M,M,M,M,M,M,M,KIPT 270238Z 09012KT 21/2SM -SN OVC025 A3030 RMK RB15E16PB16E19SB19 PCPN 0001; SLP268
IPT,1996-01-27 03:00,33.98,30.92,88.42,70.00,12.00,M,30.31,1026.90,1.75,M,SCT,BKN,OVC,   ,900.00,1400.00,2500.00,M,-SN FG,M,M,M,M,M,M,24.52,KIPT 270300Z 07012KT 13/4SM -SN FG SCT009 BKN014 OVC025 01/M01 A3031 RMK 6002/ RB15E16PB16E19SB19 PCPN 0003; SLP269 T00111006 55060
IPT,1996-01-27 03:08,M,M,M,70.00,11.00,M,30.30,1026.60,2.00,M,BKN,OVC,   ,   ,900.00,1400.00,M,M,-SN FG,M,M,M,M,M,M,M,KIPT 270308Z 07011KT 2SM -SN FG BKN009 OVC014 A3030 RMK BKN V SCT PCPN 0001; SLP266
IPT,1996-01-27 03:18,M,M,M,70.00,12.00,M,30.29,1026.40,1.75,M,BKN,OVC,   ,   ,700.00,1400.00,M,M,-SN FG,M,M,M,M,M,M,M,KIPT 270318Z 07012KT 13/4SM -SN FG BKN007 OVC014 A3029 RMK BKN V SCT PCPN 0003; SLP264
IPT,1996-01-27 03:36,M,M,M,80.00,13.00,M,30.28,1025.90,2.00,M,SCT,OVC,   ,   ,700.00,1400.00,M,M,-SN FG,M,M,M,M,M,M,M,KIPT 270336Z 08013KT 2SM -SN FG SCT007 OVC014 A3028 RMK PCPN 0006; SLP259
IPT,1996-01-27 04:00,33.98,32.00,92.36,70.00,14.00,M,30.26,1025.40,2.50,M,SCT,OVC,   ,   ,700.00,1200.00,M,M,-SN FG,M,M,M,M,M,M,23.71,KIPT 270400Z 07014KT 21/2SM -SN FG SCT007 OVC012 01/00 A3026 RMK OVC V BKN PCPN 0009; SLP254 T00110000
IPT,1996-01-27 04:03,M,M,M,80.00,15.00,M,30.25,1025.00,4.00,M,BKN,OVC,   ,   ,1200.00,2300.00,M,M,-SN FG,M,M,M,M,M,M,M,KIPT 270403Z 08015KT 4SM -SN FG BKN012 OVC023 A3025 RMK PCPN 0002; SLP250
IPT,1996-01-27 04:27,M,M,M,80.00,15.00,M,30.22,1023.90,4.00,25.00,SCT,BKN,OVC,   ,1200.00,2000.00,2700.00,M,-RASN FG,M,M,M,M,M,M,M,KIPT 270427Z 08015G25KT 4SM -RASN FG SCT012 BKN020 OVC027 A3022 RMK RB07 PCPN 0008 PRESFR; SLP239
IPT,1996-01-27 05:00,37.04,33.98,88.57,100.00,12.00,M,30.20,1023.10,5.00,22.00,OVC,   ,   ,   ,1300.00,M,M,M,RA FG,M,M,M,M,M,M,28.42,KIPT 270500Z 10012G22KT 5SM RA FG OVC013 03/01 A3020 RMK AO2A M13 OVC 5RF 231/37/34/1012G22/020/ 400370023 RB07SE52 PCPN 0013 PRESFR; SLP231 T00280011
IPT,1996-01-27 06:00,39.02,35.06,85.55,90.00,14.00,M,30.16,1021.70,5.00,M,OVC,   ,   ,   ,1100.00,M,M,M,RA FG,M,M,M,M,M,M,30.21,KIPT 270600Z 09014KT 5SM RA FG OVC011 04/02 A3016 RMK 6032/ 10039 20 023 PCPN 0007 PRESFR; SLP217 60049 T00390017 55060
IPT,1996-01-27 07:00,41.00,35.96,82.09,90.00,14.00,M,30.10,1019.70,5.00,20.00,BKN,OVC,   ,   ,1100.00,1800.00,M,M,RA,M,M,M,M,M,M,32.76,KIPT 270700Z 09014G20KT 5SM RA BKN011 OVC018 05/02 A3010 RMK PCPN 0011 P RESFR; SLP197 T00500022
IPT,1996-01-27 08:00,42.98,39.02,85.79,80.00,12.00,M,30.04,1017.70,7.00,19.00,OVC,   ,   ,   ,1100.00,M,M,M,RA,M,M,M,M,M,M,35.98,KIPT 270800Z 08012G19KT 7SM RA OVC011 06/04 A3004 RMK PCPN 0007 PK WND 0926/0705 PRESFR; SLP177 T00610039
IPT,1996-01-27 09:00,44.96,42.98,92.72,70.00,16.00,M,29.98,1015.50,4.00,20.00,BKN,OVC,   ,   ,1300.00,1800.00,M,M,+RA FG,M,M,M,M,M,M,37.31,KIPT 270900Z 07016G20KT 4SM +RA FG BKN013 OVC018 07/06 A2998 RMK 6033/ PCPN 0016 PK WND 0726/0822 PRESFR; SLP155 T00720061 55060
IPT,1996-01-27 10:00,46.04,42.08,85.97,80.00,16.00,M,29.91,1013.30,5.00,26.00,OVC,   ,   ,   ,1400.00,M,M,M,RA FG,M,M,M,M,M,M,38.72,KIPT 271000Z 08016G26KT 5SM RA FG OVC014 08/06 A2991 RMK PCPN 0011 PK WND 0829/0905 PRESFR; SLP133 T00780056
IPT,1996-01-27 11:00,48.02,46.04,92.81,70.00,17.00,M,29.84,1010.90,4.00,25.00,OVC,   ,   ,   ,1400.00,M,M,M,+RA FG,M,M,M,M,M,M,41.06,KIPT 271100Z 07017G25KT 4SM +RA FG OVC014 09/08 A2984 RMK PCPN 0019 PRESFR; SLP109 T00890078
IPT,1996-01-27 12:00,48.92,46.04,89.73,80.00,13.00,M,29.78,1008.80,4.00,24.00,BKN,OVC,   ,   ,1400.00,2000.00,M,M,RA FG,M,M,M,M,M,M,43.25,KIPT 271200Z 08013G24KT 4SM RA FG BKN014 OVC020 09/08 A2978 RMK 6093/ 70125 10037 20034 PCPN 0030 PK WND 0831/1118 PRESFR; SLP088 60068 70126 T00940078 55060
IPT,1996-01-27 13:00,50.00,46.94,89.17,60.00,11.00,M,29.72,1006.60,5.00,M,OVC,   ,   ,   ,1200.00,M,M,M,RA FG,M,M,M,M,M,M,45.21,KIPT 271300Z 06011KT 5SM RA FG OVC012 10/08 A//// RMK SLP066 T01000083
IPT,1996-01-27 14:00,50.00,46.94,89.17,60.00,13.00,M,29.66,1004.70,5.00,21.00,OVC,   ,   ,   ,1200.00,M,M,M,-RA FG,M,M,M,M,M,M,44.63,KIPT 271400Z 06013G21KT 5SM -RA FG OVC012 10/08 A2966 RMK PCPN 0008 WSHFT PK WND 0930/1335 PRESFR; SLP047 8/314 T01000083
IPT,1996-01-27 15:00,51.08,48.02,89.22,60.00,12.00,M,29.61,1003.00,2.50,18.00,OVC,   ,   ,   ,1400.00,M,M,M,RA FG,M,M,M,M,M,M,51.08,KIPT 271500Z 06012G18KT 21/2SM RA FG OVC014 11/09 A2961 RMK 6038/ PCPN 0009 PRESFR; SLP030 T01060089 55060
IPT,1996-01-27 15:13,M,M,M,300.00,7.00,M,29.61,1002.80,1.50,19.00,OVC,   ,   ,   ,1200.00,M,M,M,RA FG,M,M,M,M,M,M,M,KIPT 271513Z 30007G19KT 11/2SM RA FG OVC012 A2961 RMK PCPN 0005; SLP028
IPT,1996-01-27 15:38,M,M,M,30.00,8.00,M,29.60,1002.40,2.50,M,OVC,   ,   ,   ,1000.00,M,M,M,-RA FG,M,M,M,M,M,M,M,KIPT 271538Z 03008KT 21/2SM -RA FG OVC010 A2960 RMK CIG 9V13 PCPN 0009; SLP024
IPT,1996-01-27 16:00,50.00,48.02,92.87,340.00,7.00,M,29.59,1002.30,4.00,15.00,OVC,   ,   ,   ,1000.00,M,M,M,-RA FG,M,M,M,M,M,M,46.72,KIPT 271600Z 34007G15KT 4SM -RA FG OVC010 10/09 A2959 RMK PCPN 0010; SLP023 T01000089
IPT,1996-01-27 16:23,M,M,M,30.00,5.00,M,29.58,1001.70,2.50,21.00,OVC,   ,   ,   ,1200.00,M,M,M,-RA FG,M,M,M,M,M,M,M,KIPT 271623Z 03005G21KT 21/2SM -RA FG OVC012 A2958 RMK PCPN 0002; SLP017
IPT,1996-01-27 16:34,M,M,M,220.00,17.00,M,29.59,1002.10,5.00,26.00,BKN,OVC,   ,   ,1200.00,2000.00,M,M,-RA FG,M,M,M,M,M,M,M,KIPT 271634Z 22017G26KT 5SM -RA FG BKN012 OVC020 A2959 RMK BKN V OVC PCPN 0002 WND 15V24 PK WND 2326/1634; SLP021
IPT,1996-01-27 16:37,M,M,M,270.00,29.00,M,29.62,1003.20,7.00,36.00,OVC,   ,   ,   ,1400.00,M,M,M,-RA,M,M,M,M,M,M,M,KIPT 271637Z 27029G36KT 7SM -RA OVC014 A2962 RMK PCPN 0003 PK WND 2636/1637 PRESRR; SLP032
IPT,1996-01-27 17:00,39.02,35.96,88.66,260.00,31.00,M,29.66,1004.60,1.25,38.00,SCT,BKN,OVC,   ,1400.00,2300.00,3800.00,M,+RA FG,M,M,M,M,M,M,26.17,KIPT 271700Z 26031G38KT 11/4SM +RA FG SCT014 BKN023 OVC038 04/02 A2966 RMK OCNL IP- BKN V SCT PCPN 0013 WSHFT PK WND 2641/1638 PRJMP 5/1631/1636; SLP046 8/632 T00390022
IPT,1996-01-27 17:08,M,M,M,270.00,20.00,M,29.66,1004.80,2.50,28.00,SCT,OVC,   ,   ,2100.00,4100.00,M,M,RA FG,M,M,M,M,M,M,M,KIPT 271708Z 27020G28KT 21/2SM RA FG SCT021 OVC041 A2966 RMK PCPN 0002 PK WND 2530/1657 PRESRR; SLP048
IPT,1996-01-27 17:19,M,M,M,270.00,19.00,M,29.66,1004.90,5.00,28.00,SCT,OVC,   ,   ,1700.00,4300.00,M,M,-RA FG,M,M,M,M,M,M,M,KIPT 271719Z 27019G28KT 5SM -RA FG SCT017 OVC043 A2966 RMK OCNL IP- PCPN 0003 PK WND 2530/1657 PRESRR; SLP049
IPT,1996-01-27 18:00,35.96,30.92,81.72,280.00,14.00,M,29.65,1004.40,5.00,27.00,BKN,OVC,   ,   ,1400.00,4900.00,M,M,-RASN,M,M,M,M,M,M,26.27,KIPT 271800Z 28014G27KT 5SM -RASN BKN014 OVC049 02/M01 A2965 RMK OCNL IP- 6067/ 10052 20032 SB53 PCPN 0006 PK WND 2530/1657 PRESRR; SLP044 60013 T00221006 55030
IPT,1996-01-27 19:00,37.04,32.00,81.80,260.00,10.00,M,29.64,1004.10,10.00,14.00,SCT,OVC,   ,   ,1000.00,6000.00,M,M,M,M,M,M,M,M,M,29.29,KIPT 271900Z 26010G14KT 10SM SCT010 OVC060 03/00 A2964 RMK RE44SE04 PCPN 0002; SLP041 T00280000
IPT,1996-01-27 20:00,39.02,24.08,54.68,260.00,17.00,M,29.67,1005.10,10.00,30.00,BKN,   ,   ,   ,9000.00,M,M,M,M,M,M,M,M,M,M,29.27,KIPT 272000Z 26017G30KT 10SM BKN090 04/M04 A2967 RMK PK WND 2630/1949 PRESRR; SLP051 T00391044
IPT,1996-01-27 21:00,37.04,19.94,49.62,270.00,20.00,M,29.71,1006.30,10.00,31.00,CLR,   ,   ,   ,M,M,M,M,M,M,M,M,M,M,M,25.83,KIPT 272100Z 27020G31KT 10SM CLR/// 03/M07 A2971 RMK CLR BLO 53016 6002/ PK WND 2631/2049; SLP063 T00281067 51020
IPT,1996-01-27 22:00,33.98,17.06,49.51,270.00,16.00,M,29.77,1008.60,10.00,32.00,SCT,   ,   ,   ,4700.00,M,M,M,M,M,M,M,M,M,M,23.00,KIPT 272200Z 27016G32KT 10SM SCT047 01/M08 A2977 RMK PK WND 2637/2113 PRESRR; SLP086 T00111083
IPT,1996-01-27 23:00,32.00,15.08,49.19,250.00,21.00,M,29.82,1010.00,10.00,31.00,OVC,   ,   ,   ,5500.00,M,M,M,M,M,M,M,M,M,M,18.85,KIPT 272300Z 25021G31KT 10SM OVC055 00/M09 A2982 RMK PK WND 2531/2229; SLP100 T00001094
